designacao,tipo,idatend,dicofre,morada,codigopostal,localidadepostal,horario,telefone,email,site,latitude,longitude,nodeidet,entidadetutelar,nodeident,entidade
DIREÇÃO NACIONAL DA POLÍCIA DE SEGURANÇA PÚBLICA,Comando,885,110663,"Largo da Penha de França, nº 1",1170-298,LISBOA,Sem Horário de Atendimento,218111000 - 965989000,contacto@psp.pt,http://www.psp.pt,38.730098,-9.131337,237,Ministério da Administração Interna,2528,PSP
DIREÇÃO NACIONAL DA PSP - Relações Publicas,Departamento,886,110663,"Largo da Penha de França, nº 1",1170-298,LISBOA,Dias úteis: 9h00-12h30 / 14h00-16h00,218111000 - 218111049 - 965989000,contacto@psp.pt,http://www.psp.pt,38.730098,-9.131337,237,Ministério da Administração Interna,2528,PSP
DIREÇÃO NACIONAL DA PSP - Recursos Humanos,Departamento,887,110663,"Largo da Penha de França, nº 1",1170-298,LISBOA,Dias úteis: 9h00-12h30 / 14h00-16h00,218111000 - 965989000,deprh@psp.pt,http://www.psp.pt,38.730098,-9.131337,237,Ministério da Administração Interna,2528,PSP
DIREÇÃO NACIONAL DA PSP - Departamento de Armas e Explosivos,Departamento,888,110666,"Rua da Artilharia 1, nº 21",1269-003,LISBOA,Dias úteis: 9h00-12h30 / 14h00-16h00,213703900,depaex@psp.pt,http://www.psp.pt,38.723383,-9.154564,237,Ministério da Administração Interna,2528,PSP
INSTITUTO SUPERIOR DE CIÊNCIAS POLICIAIS E SEGURANÇA INTERNA,Estabelecimento de Ensino,889,110602,"Rua 1º de Maio, n.º 3",1349-040,LISBOA,Dias úteis: 9h00-12h30 / 14h00-16h00,213613900,iscpsi@psp.pt,http://www.psp.pt,38.704418,-9.178236,237,Ministério da Administração Interna,2528,PSP
ESCOLA PRATICA DE POLICIA,Estabelecimento de Ensino,890,141921,Largo das Forças Armadas,2350-754,TORRES NOVAS,Dias úteis: 9h00-12h30 / 14h00-16h00,249819660 - 962049941 - 964547555,epp@psp.pt,http://www.psp.pt,39.481094,-8.534408,237,Ministério da Administração Interna,2528,PSP
UNIDADE ESPECIAL DE POLÍCIA,Unidade Especial,891,111126,Quinta das Águas Livres - Belas,2605-197,BELAS,Sem Horário de Atendimento,219802020,uep@psp.pt,http://www.psp.pt,38.783420,-9.246250,237,Ministério da Administração Interna,2528,PSP
GRUPO DE OPERAÇÕES ESPECIAIS,Unidade Especial,892,111126,Quinta das Águas Livres - Belas,2605-197,BELAS,Sem Horário de Atendimento,219802020,goe@psp.pt,http://www.psp.pt,38.783420,-9.246250,237,Ministério da Administração Interna,2528,PSP
CORPO DE INTERVENÇÃO,Unidade Especial,893,110658,"Calçada da Ajuda, Nº 23",1300-006,LISBOA,Sem Horário de Atendimento,213647155 - 219802020,ci@psp.pt,http://www.psp.pt,38.700610,-9.200159,237,Ministério da Administração Interna,2528,PSP
CORPO DE SEGURANÇA PESSOAL,Unidade Especial,894,111126,Quinta das Águas Livres - Belas,2605-197,BELAS,Sem Horário de Atendimento,219802020,csp@psp.pt,http://www.psp.pt,38.783420,-9.246250,237,Ministério da Administração Interna,2528,PSP
CENTRO DE INATIVAÇÃO DE EXPLOSIVOS E SEGURANÇA EM SUBSOLO,Unidade Especial,895,111126,Quinta das Águas Livres - Belas,2605-197,BELAS,Sem Horário de Atendimento,219802020,ciexss@psp.pt,http://www.psp.pt,38.783420,-9.246250,237,Ministério da Administração Interna,2528,PSP
GRUPO OPERACIONAL CINOTÉCNICO,Unidade Especial,896,111126,Quinta das Águas Livres - Belas,2605-197,BELAS,Sem Horário de Atendimento,219802020,0,http://www.psp.pt,38.783420,-9.246250,237,Ministério da Administração Interna,2528,PSP
AVEIRO - Comando Distrital,Comando,897,010517,Praça Marquês de Pombal,3810-133,AVEIRO,Dias úteis: 9h00-12h30 / 14h00-16h00,234400290 - 962000437 - 962000474,cpaveiro@psp.pt,http://www.psp.pt,40.638292,-8.654314,237,Ministério da Administração Interna,2528,PSP
AVEIRO - Divisão Policial,Divisão de Policia,898,010513,"Rua da Prata, s/n - Santa Joana",3810-314,AVEIRO,Dias úteis: 9h00-12h30 / 14h00-16h00,234302510 - 234302511 - 962000437 - 962000474,div.aveiro@psp.pt,http://www.psp.pt,40.638027,-8.616634,237,Ministério da Administração Interna,2528,PSP
AVEIRO - Esquadra de Trânsito,Esquadra de Trânsito,899,010513,"Rua da Prata, s/n - Santa Joana",3810-314,AVEIRO,Dias úteis: 9h00-12h30 / 14h00-16h00,234302510 - 234302511 - 962000437 - 962000474,esqtr.aveiro@psp.pt,http://www.psp.pt,40.638027,-8.616634,237,Ministério da Administração Interna,2528,PSP
AVEIRO - Esquadra de Investigação Criminal,Esquadra de Investigação Criminal,900,010513,"Rua da Prata, s/n - Santa Joana",3810-314,AVEIRO,Dias úteis: 9h00-12h30 / 14h00-16h00,234302510 - 234302511 - 962000437 - 962000474,eic.aveiro@psp.pt,http://www.psp.pt,40.638027,-8.616634,237,Ministério da Administração Interna,2528,PSP
AVEIRO - Esquadra de Intervenção e Fiscalização Policial,Esquadra de Intervenção e Fiscalização Policial,901,010513,"Rua da Prata, s/n - Santa Joana",3810-314,AVEIRO,Dias úteis: 9h00-12h30 / 14h00-16h00,234302510 - 234302511 - 962000437 - 962000474,eifp.aveiro@psp.pt,http://www.psp.pt,40.638027,-8.616634,237,Ministério da Administração Interna,2528,PSP
AVEIRO - Esquadra - MARQUÊS,Esquadra de Polícia,902,010517,"Praça Marquês de Pombal, s/n - Edificio Governo Civil",3810-076,AVEIRO,Dias úteis: 9h00-12h30 / 14h00-16h00,234302510,esquadrasede.aveiro@psp.pt,http://www.psp.pt,40.638292,-8.654314,237,Ministério da Administração Interna,2528,PSP
AVEIRO - Esquadra - GRINÉ,Esquadra de Polícia,903,010513,"Rua da Prata, s/n - Santa Joana",3810-314,AVEIRO,Dias úteis: 9h00-12h30 / 14h00-16h00 - Atendimento Policial Permanente,234302510 - 234302511 - 962000437 - 962000474,esquadrasede.aveiro@psp.pt,http://www.psp.pt,40.638027,-8.616634,237,Ministério da Administração Interna,2528,PSP
ESPINHO - Divisão Policial,Divisão de Policia,904,010702,"Rua 23, s/n",4504-853,ESPINHO,Dias úteis: 9h00-12h30 / 14h00-16h00,227330420 - 227330421,espinho.aveiro@psp.pt,http://www.psp.pt,41.007106,-8.635544,237,Ministério da Administração Interna,2528,PSP
ESPINHO - Esquadra de Trânsito,Esquadra de Trânsito,905,010702,"Rua 23, s/n",4504-853,ESPINHO,Dias úteis: 9h00-12h30 / 14h00-16h00,227330420 - 227330421,esqtr.espinho.aveiro@psp.pt,http://www.psp.pt,41.007106,-8.635544,237,Ministério da Administração Interna,2528,PSP
ESPINHO - Esquadra de Investigação Criminal,Esquadra de Investigação Criminal,906,010702,"Rua 23, s/n",4504-853,ESPINHO,Dias úteis: 9h00-12h30 / 14h00-16h00,227330420 - 227330421,eic.espinho.aveiro@psp.pt,http://www.psp.pt,41.007106,-8.635544,237,Ministério da Administração Interna,2528,PSP
ESPINHO - Esquadra de Intervenção e Fiscalização Policial,Esquadra de Intervenção e Fiscalização Policial,907,010702,"Rua 23, s/n",4504-853,ESPINHO,Dias úteis: 9h00-12h30 / 14h00-16h00,227330420 - 227330421,avreifpesp@rnsi.local,http://www.psp.pt,41.007106,-8.635544,237,Ministério da Administração Interna,2528,PSP
ESPINHO - Esquadra,Esquadra de Polícia,908,010702,"Rua 23, s/n",4501-853,ESPINHO,Dias úteis: 9h00-12h30 / 14h00-16h00 - Atendimento Policial Permanente,227330420 - 227330421,avresqesp@rnsi.local,http://www.psp.pt,41.007106,-8.635544,237,Ministério da Administração Interna,2528,PSP
OVAR - Esquadra,Esquadra de Polícia,909,011509,"Rua Dr. José Falcão, Nº 11",3880-205,OVAR,Dias úteis: 9h00-12h30 / 14h00-16h00 - Atendimento Policial Permanente,256580890,ovar.aveiro@psp.pt,http://www.psp.pt,40.861623,-8.625780,237,Ministério da Administração Interna,2528,PSP
SÃO JOÃO DA MADEIRA - Esquadra,Esquadra de Polícia,910,011601,"Rua Alão de Morais, Nº 183",3700-021,SÃO JOÃO DA MADEIRA,Dias úteis: 9h00-12h30 / 14h00-16h00 - Atendimento Policial Permanente,256815000,sjmadeira.aveiro@psp.pt,http://www.psp.pt,40.902153,-8.491842,237,Ministério da Administração Interna,2528,PSP
SANTA MARIA DA FEIRA - Esquadra,Esquadra de Polícia,911,010935,"Rua Dr. Paulo de Sá, Nº 2",4520-219,SANTA MARIA DA FEIRA,Dias úteis: 9h00-12h30 / 14h00-16h00 - Atendimento Policial Permanente,256300030,smfeira.aveiro@psp.pt,http://www.psp.pt,40.916092,-8.569321,237,Ministério da Administração Interna,2528,PSP
BEJA - Comando Distrital,Comando,912,020520,Rua Dom Nuno Álvares Pereira - Edificio do Governo Civil,7800-054,BEJA,Dias úteis: 9h00-12h30 / 14h00-16h00,284322022 - 284313150 - 961042122,cpbeja@psp.pt,http://www.psp.pt,38.013651,-7.859698,237,Ministério da Administração Interna,2528,PSP
BEJA - Esquadra de Trânsito,Esquadra de Trânsito,913,020520,Rua D. Nuno Álvares Pereira - Edifício do Governo Civil,7800-054,BEJA,Dias úteis: 9h00-12h30 / 14h00-16h00,284322022 - 284313150 - 961042122,etr.beja@psp.pt,http://www.psp.pt,38.013651,-7.859698,237,Ministério da Administração Interna,2528,PSP
BEJA - Esquadra de Investigação Criminal,Esquadra de Investigação Criminal,914,020521,"Rua da Moeda, Nº 24 A",7800-464,Beja,Sem Horário de Atendimento,284322022 - 284313150 - 961042122,eic.beja@psp.pt,http://www.psp.pt,"38,014225",-7.865527,237,Ministério da Administração Interna,2528,PSP
BEJA - Esquadra de Intervenção e Fiscalização Policial,Esquadra de Intervenção e Fiscalização Policial,915,020521,Largo Dom Nuno Álvares Pereira,7800-018,BEJA,Sem Horário de Atendimento,284322022 - 284313150 - 961042122,eifp.beja@psp.pt,http://www.psp.pt,38.013651,-7.859698,237,Ministério da Administração Interna,2528,PSP
BEJA - Esquadra,Esquadra de Polícia,916,020521,Largo Dom Nuno Álvares Pereira,7800-018,BEJA,Atendimento Policial Permanente,284322022 - 284313150 - 961042122,esquadrasede.beja@psp.pt,http://www.psp.pt,38.013051,-7.860852,237,Ministério da Administração Interna,2528,PSP
MOURA - Esquadra,Esquadra de Polícia,917,021009,"Rua Capitão Martim Carrasco, s/n",7860-017,MOURA,Atendimento Policial Permanente,285251203 - 961042122,moura.beja@psp.pt,http://www.psp.pt,38.139316,-7.451675,237,Ministério da Administração Interna,2528,PSP
BRAGA - Comando Distrital,Comando,918,030364,"Campo de São Tiago, n.º 6",4704-504,BRAGA,Dias úteis: 9h00-12h30 / 14h00-16h00,253200420 - 253206480 - 253613252/3 - 962000404 - 962000416,cpbraga@psp.pt,http://www.psp.pt,41.548050,-8.425199,237,Ministério da Administração Interna,2528,PSP
BRAGA - Esquadra de Trânsito,Esquadra de Trânsito,919,030364,"Campo de São Tiago, n.º 6",4704-504,BRAGA,Dias úteis: 9h00-12h30 / 14h00-16h00 - Atendimento Policial Permanente,253613253,brgesqtr@psp.pt,http://www.psp.pt,41.548030,-8.424266,237,Ministério da Administração Interna,2528,PSP
BRAGA - Esquadra de Investigação Criminal,Esquadra de Investigação Criminal,920,030364,"Campo de São Tiago, n.º 6",4704-504,BRAGA,Dias úteis: 9h00-12h30 / 14h00-16h00,253206480,brgeic@psp.pt,http://www.psp.pt,41.548078,-8.424985,237,Ministério da Administração Interna,2528,PSP
BRAGA - Esquadra de Intervenção e Fiscalização Policial,Esquadra de Intervenção e Fiscalização Policial,921,030364,"Largo de São Tiago, nº 6",4704-504,BRAGA,Dias úteis: 9h00-12h30 / 14h00-16h00,253200420,eifp.braga@psp.pt,http://www.psp.pt,41.547713,-8.425065,237,Ministério da Administração Interna,2528,PSP
BRAGA - Divisão Policial,Divisão de Policia,922,030364,"Largo de São Tiago, n.º 6",4704-504,BRAGA,Dias úteis: 9h00-12h30 / 14h00-16h00,253200420,divbrg.braga@psp.pt,http://www.psp.pt,41.548078,-8.424985,237,Ministério da Administração Interna,2528,PSP
BRAGA - 1ª Esquadra,Esquadra de Polícia,923,030364,"Largo de São Tiago, n.º 6",4704-504,BRAGA,Dias úteis: 9h00-12h30 / 14h00-16h00 - Atendimento Policial Permanente,253613253,brg1esq@psp.pt,http://www.psp.pt,41.548078,-8.424985,237,Ministério da Administração Interna,2528,PSP
BRAGA - 2ª Esquadra - SOUTO MAIOR,Esquadra de Polícia,924,030351,"Praça da Justiça, n.º 190",4715-125,BRAGA,Dias úteis: 9h00-12h30 / 14h00-16h00 - Atendimento Policial Permanente,253613252,brg2esq@psp.pt,http://www.psp.pt,41.548118,-8.411579,237,Ministério da Administração Interna,2528,PSP
GUIMARÃES - Divisão Policial,Divisão de Policia,925,030884,"Alameda Drº. Alfredo Pimenta, s/n - São Paio",4814-523,GUIMARÃES,Sem Horário de Atendimento,253540660 - 962000445,guimaraes.braga@psp.pt,http://www.psp.pt,41.448149,-8.299549,237,Ministério da Administração Interna,2528,PSP
GUIMARÃES - Esquadra de Trânsito,Esquadra de Trânsito,926,030884,"Alameda Drº. Alfredo Pimenta, s/n - São Paio",4814-523,GUIMARÃES,Sem Horário de Atendimento,253540669,brgetrgmr@rnsi.local,http://www.psp.pt,41.448149,-8.299549,237,Ministério da Administração Interna,2528,PSP
GUIMARÃES - Esquadra de Investigação Criminal,Esquadra de Investigação Criminal,927,030884,"Alameda Drº. Alfredo Pimenta, s/n - São Paio",4814-523,GUIMARÃES,Sem Horário de Atendimento,253540676,brgeicgmr@rnsi.local,http://www.psp.pt,41.448149,-8.299549,237,Ministério da Administração Interna,2528,PSP
GUIMARÃES - Esquadra de Intervenção e Fiscalização Policial,Esquadra de Intervenção e Fiscalização Policial,928,030884,"Alameda Drº. Alfredo Pimenta, s/n - São Paio",4814-523,GUIMARÃES,Sem Horário de Atendimento,253540660,eifpguim.braga@psp.pt,http://www.psp.pt,41.448149,-8.299549,237,Ministério da Administração Interna,2528,PSP
GUIMARÃES - Esquadra,Esquadra de Polícia,929,030884,"Alameda Drº. Alfredo Pimenta, s/n - São Paio",4814-523,GUIMARÃES,Sem Horário de Atendimento,253540660 - 962000445,brgesqgmr@rnsi.local,http://www.psp.pt,41.448149,-8.299549,237,Ministério da Administração Interna,2528,PSP
BARCELOS - Esquadra,Esquadra de Polícia,930,030293,"Avenida Sidónio Pais, nº 537",4750-333,BARCELOS,Dias úteis: 9h00-12h30 / 14h00-16h00 - Atendimento Policial Permanente,253802570,brgesqbar@psp.pt,http://www.psp.pt,41.531351,-8.617449,237,Ministério da Administração Interna,2528,PSP
VILA NOVA DE FAMALICÃO - Esquadra,Esquadra de Polícia,931,031260,Rua António Sérgio s/n,4760-298,VILA NOVA DE FAMALICÃO,Dias úteis: 9h00-12h30 / 14h00-16h00 - Atendimento Policial Permanente,252373375 - 252320120,brgesqvnf@psp.pt,http://www.psp.pt,41.405660,-8.527113,237,Ministério da Administração Interna,2528,PSP
BRAGANÇA - Comando Distrital,Comando,932,040257,"Rua Dr. Manuel Bento, n.º 4",5301-868,BRAGANÇA,Sem Horário de Atendimento,273303400 - 96963497596 - 963495773,cpbraganca@psp.pt,http://www.psp.pt,41.807927,-6.765416,237,Ministério da Administração Interna,2528,PSP
BRAGANÇA - Esquadra de Trânsito,Esquadra de Trânsito,933,040257,"Rua Dr. Manuel Bento, Nº 4",5301-868,BRAGANÇA,Dias úteis: 9h00-12h30 / 14h00-16h00,273303413 - 96963497596 - 963495773,bgcesqtr@rnsi.local,http://www.psp.pt,41.807927,-6.765416,237,Ministério da Administração Interna,2528,PSP
BRAGANÇA - Esquadra de Investigação Criminal,Esquadra de Investigação Criminal,934,040257,"Rua Dr. Manuel Bento, Nº 4",5301-868,BRAGANÇA,Dias úteis: 9h00-12h30 / 14h00-16h00,273303426 - 96963497596 - 963495773,eic.braganca@psp.pt,http://www.psp.pt,41.807927,-6.765416,237,Ministério da Administração Interna,2528,PSP
BRAGANÇA - Esquadra de Intervenção e Fiscalização,Esquadra de Intervenção e Fiscalização Policial,935,040257,"Rua Dr. Manuel Bento, Nº 4",5301-868,BRAGANÇA,Sem Horário de Atendimento,273303400 - 96963497596 - 963495773,eifp.braganca@psp.pt,http://www.psp.pt,41.807927,-6.765416,237,Ministério da Administração Interna,2528,PSP
BRAGANÇA - Esquadra,Esquadra de Polícia,936,040257,"Rua Dr. Manuel Bento, Nº 4",5301-868,BRAGANÇA,Dias úteis: 9h00-12h30 / 14h00-16h00 - Atendimento Policial Permanente,273303412 - 96963497596 - 963495773,bgcesqsede@psp.pt,http://www.psp.pt,41.807927,-6.765416,237,Ministério da Administração Interna,2528,PSP
MIRANDELA - Esquadra,Esquadra de Polícia,937,040721,"Avenida 25 de Abril, nº 660",5370-202,MIRANDELA,Dias úteis: 9h00-12h30 / 14h00-16h00 - Atendimento Policial Permanente,278260000,mirandela.braganca@psp.pt,http://www.psp.pt,41.285200,-7.103770,237,Ministério da Administração Interna,2528,PSP
QUINTANILHA - Centro de coordenação Policial e Aduaneira,Varios,938,040232,"Ponte Internacional de Quintanilha
Estrada Nacional 218-1",5300-775,QUINTANILHA,Sem Horário de Atendimento,273938023/24,ccpa.quintanilha@psp.pt,http://www.psp.pt,41.737564,-6.55725,237,Ministério da Administração Interna,2528,PSP
CASTELO BRANCO - Comando Distrital,Comando,939,050205,"Estrada Nacional 18
Cruz do Montalvão, nº 2",6000-050,CASTELO BRANCO,Dias úteis: 9h00-12h30 / 14h00-16h00,272340622 - 963497405 - 963495835,cpcbranco@psp.pt,http://www.psp.pt,39.8120679,-7.5070178,237,Ministério da Administração Interna,2528,PSP
CASTELO BRANCO - Esquadra de Trânsito,Esquadra de Trânsito,940,050205,"Estrada Nacional 18
Cruz do Montalvão, nº 2",6000-050,CASTELO BRANCO,Dias úteis: 9h00-12h30 / 14h00-16h00 - Atendimento Policial Permanente,272340622,ctbesqtr@rnsi.local,http://www.psp.pt,39.8120679,-7.5070178,237,Ministério da Administração Interna,2528,PSP
CASTELO BRANCO - Esquadra de Investigação Criminal,Esquadra de Investigação Criminal,941,050205,"Estrada Nacional 18
Cruz do Montalvão, nº 2",6000-050,CASTELO BRANCO,Dias úteis: 9h00-12h30 / 14h00-16h00,272340622,ctbeic@rnsi.local,http://www.psp.pt,39.8120679,-7.5070178,237,Ministério da Administração Interna,2528,PSP
CASTELO BRANCO - Esquadra de Intervenção e Fiscalização,Esquadra de Intervenção e Fiscalização Policial,942,050205,"Estrada Nacional 18
Cruz do Montalvão, nº 2",6000-050,CASTELO BRANCO,Dias úteis: 9h00-12h30 / 14h00-16h00,272340622 - 272340668,eifp.cbranco@rnsi.local,http://www.psp.pt,39.8120679,-7.5070178,237,Ministério da Administração Interna,2528,PSP
CASTELO BRANCO - Esquadra,Esquadra de Polícia,943,050205,"Estrada Nacional 18
Cruz do Montalvão, nº 2",6000-050,CASTELO BRANCO,Dias úteis: 9h00-12h30 / 14h00-16h00 - Atendimento Policial Permanente,272340622,ctbesqsede@rnsi.local,http://www.psp.pt,39.8120679,-7.5070178,237,Ministério da Administração Interna,2528,PSP
COVILHÃ - Divisão Policial,Divisão de Policia,944,050335,"Rua da Misericórdia, s/n",6201-013,COVILHÃ,Dias úteis: 9h00-12h30 / 14h00-16h00,275320920,covilha.castelobranco@psp.pt,http://www.psp.pt,40.2746349,-7.4991268,237,Ministério da Administração Interna,2528,PSP
COVILHÃ - Esquadra de Trânsito,Esquadra de Trânsito,945,050335,"Rua da Misericórdia, s/n",6201-013,COVILHÃ,Dias úteis: 9h00-12h30 / 14h00-16h00,275320920,ctbesqtrcvl@rnsi.local,http://www.psp.pt,40.2746349,-7.4991268,237,Ministério da Administração Interna,2528,PSP
COVILHÃ - Esquadra de Investigação Criminal,Esquadra de Investigação Criminal,946,050335,"Rua da Misericórdia, s/n",6201-013,COVILHÃ,Dias úteis: 9h00-12h30 / 14h00-16h00,275320920,ctbeiccvl@rnsi.local,http://www.psp.pt,40.2746349,-7.4991268,237,Ministério da Administração Interna,2528,PSP
COVILHÃ - Esquadra de Intervenção e Fiscalização,Esquadra de Intervenção e Fiscalização Policial,947,050335,"Rua da Misericórdia, s/n",6201-013,COVILHÃ,Dias úteis: 9h00-12h30 / 14h00-16h00,275320920,eifp.cvl@rnsi.local,http://www.psp.pt,40.2746349,-7.4991268,237,Ministério da Administração Interna,2528,PSP
COVILHÃ - Esquadra,Esquadra de Polícia,948,050335,"Rua da Misericórdia, s/n",6201-013,COVILHÃ,Atendimento Policial Permanente,275320920,ctbesqcvl@rnsi.local,http://www.psp.pt,40.2746349,-7.4991268,237,Ministério da Administração Interna,2528,PSP
COIMBRA - Comando Distrital,Comando,949,060318,"Avenida Elísio de Moura, n.º 155",3034-001,COIMBRA,Sem Horário de Atendimento,239797640,cpcoimbra@psp.pt,http://www.psp.pt,40.207967,-8.400335,237,Ministério da Administração Interna,2528,PSP
COIMBRA - Esquadra de Trânsito,Esquadra de Trânsito,950,060318,"Rua D. Ernesto Sena de Oliveira, s/n",3034-378,COIMBRA,Dias úteis: 9h00-12h30 / 14h00-16h00,239797640,cpcoimbra@psp.pt,http://www.psp.pt,40.207967,-8.400335,237,Ministério da Administração Interna,2528,PSP
COIMBRA - Esquadra de Investigação Criminal,Esquadra de Investigação Criminal,951,060318,"Av. Elísio de Moura, nº 155",3034-001,COIMBRA,Dias úteis: 9h00-12h30 / 14h00-16h00,239797640,cpcoimbra@psp.pt,http://www.psp.pt,40.207967,-8.400335,237,Ministério da Administração Interna,2528,PSP
COIMBRA - Esquadra de Intervenção e Fiscalização Policial,Esquadra de Intervenção e Fiscalização Policial,952,060318,"Av. Elísio de Moura, nº 156",3034 001,COIMBRA,Dias úteis: 9h00-12h30 / 14h00-16h00,239797640,cpcoimbra@psp.pt,http://www.psp.pt,40.207967,-8.400335,237,Ministério da Administração Interna,2528,PSP
COIMBRA - Divisão Policial,Divisão de Policia,953,060318,"Avenida Elísio de Moura, nº 155",3034-001,COIMBRA,Dias úteis: 9h00-12h30 / 14h00-16h00,239797640,cpcoimbra@psp.pt,http://www.psp.pt,40.207967,-8.400335,237,Ministério da Administração Interna,2528,PSP
COIMBRA - 1ª Esquadra,Esquadra de Polícia,954,060318,"Avenida Elísio de Moura, n.º 155",3034-001,COIMBRA,Dias úteis: 9h00-12h30 / 14h00-16h00 - Atendimento Policial Permanente,239797640,cpcoimbra@psp.pt,http://www.psp.pt,40.207967,-8.400335,237,Ministério da Administração Interna,2528,PSP
COIMBRA - 2ª Esquadra,Esquadra de Polícia,955,060334,"Rua Olímpio Nicolau Rui Fernandes, s/n",3000-303,COIMBRA,Dias úteis: 9h00-12h30 / 14h00-16h00 - Atendimento Policial Permanente,239797640,cpcoimbra@psp.pt,http://www.psp.pt,40.211752,-8.428702,237,Ministério da Administração Interna,2528,PSP
FIGUEIRA DA FOZ - Divisão Policial,Divisão de Policia,956,060520,"Rua de Mortágua, s/n",3080-892,FIGUEIRA DA FOZ,Sem Horário de Atendimento,233407560,figueiradafoz.coimbra@psp.pt,http://www.psp.pt,40.155392,-8.857706,237,Ministério da Administração Interna,2528,PSP
FIGUEIRA DA FOZ - Esquadra de Trânsito,Esquadra de Trânsito,957,060520,Rua da Mortágua - s/n,3080-892,FIGUEIRA DA FOZ,Dias úteis: 9h00-12h30 / 14h00-16h00,233407560,figueiradafoz.coimbra@psp.pt,http://www.psp.pt,40.155392,-8.857706,237,Ministério da Administração Interna,2528,PSP
FIGUEIRA DA FOZ - Esquadra de Investigação Criminal,Esquadra de Investigação Criminal,958,060520,Rua da Mortágua - s/n,3080-892,FIGUEIRA DA FOZ,Dias úteis: 9h00-12h30 / 14h00-16h00,233407560,figueiradafoz.coimbra@psp.pt,http://www.psp.pt,40.155392,-8.857706,237,Ministério da Administração Interna,2528,PSP
FIGUEIRA DA FOZ - Esquadra de Intervenção e Fiscalização Policial,Esquadra de Intervenção e Fiscalização Policial,959,060520,Rua da Mortágua - s/n,3080-892,FIGUEIRA DA FOZ,Dias úteis: 9h00-12h30 / 14h00-16h00,233407560,figueiradafoz.coimbra@psp.pt,http://www.psp.pt,40.155392,-8.857706,237,Ministério da Administração Interna,2528,PSP
FIGUEIRA DA FOZ - Esquadra,Esquadra de Polícia,960,060520,Rua da Mortágua - s/n,3080-892,FIGUEIRA DA FOZ,Dias úteis: 9h00-12h30 / 14h00-16h00 - Atendimento Policial Permanente,233407560,figueiradafoz.coimbra@psp.pt,http://www.psp.pt,40.155392,-8.857706,237,Ministério da Administração Interna,2528,PSP
ÉVORA - Comando Distrital,Comando,961,070523,"Rua Francisco Soares Lusitano, s/n",7004-511,ÉVORA,Dias úteis: 9h00-12h30 / 14h00-16h00,266760450 - 962013633,cpevora@psp.pt,http://www.psp.pt,38.572981,-7.908107,237,Ministério da Administração Interna,2528,PSP
ÉVORA - Esquadra de Trânsito,Esquadra de Trânsito,962,070524,"Av. Arquitecto Torralva, nº 44",7000-470,ÉVORA,Dias úteis: 9h00-12h30 / 14h00-16h00,266760450,0,http://www.psp.pt,38.576404,-7.917457,237,Ministério da Administração Interna,2528,PSP
ÉVORA - Esquadra de Investigação Criminal,Esquadra de Investigação Criminal,963,070523,"Rua Francisco Soares Lusitano, s/n",7004-051,ÉVORA,Sem Horário de Atendimento,266760450,0,http://www.psp.pt,38.568561,-7.908803,237,Ministério da Administração Interna,2528,PSP
ÉVORA - Esquadra de Intervenção e Fiscalização Policial,Esquadra de Intervenção e Fiscalização Policial,964,070523,"Rua Francisco Soares Lusitano, s/n",7004-511,ÉVORA,Sem Horário de Atendimento,266760450 - 962013633,cpevora@psp.pt,http://www.psp.pt,38.572981,-7.908107,237,Ministério da Administração Interna,2528,PSP
ÉVORA - Esquadra,Esquadra de Polícia,965,070523,"Rua Francisco Soares Lusitano, s/n",7004-511,ÉVORA,Atendimento Policial Permanente,266760450,0,http://www.psp.pt,38.572947,-7.908108,237,Ministério da Administração Interna,2528,PSP
CRUZ DA PICADA - ÉVORA - Posto de Polícia,Posto de Polícia,966,070524,"Av. do Escurinho, Lote 43, r/c Esqº",7000-772,ÉVORA,Atendimento Policial Permanente,266760450,0,http://www.psp.pt,38.566896,-7.927623,237,Ministério da Administração Interna,2528,PSP
ESTREMOZ - Esquadra,Esquadra de Polícia,967,070414,"Rua 31 de Janeiro, s/n",7100-144,ESTREMOZ,Atendimento Policial Permanente,268338470,evresqetz@psp.pt,http://www.psp.pt,38.844611,-7.587208,237,Ministério da Administração Interna,2528,PSP
FARO - Comando Distrital,Comando,968,080508,"Rua da Polícia de Segurança Pública, n.º 32",8000-408,FARO,Sem Horário de Atendimento,289899899 - 289822022 - 961010164 - 962004367 - 961010158 - 962001688,cpfaro@psp.pt,http://www.psp.pt,37.01501,-7.927247,237,Ministério da Administração Interna,2528,PSP
FARO - Esquadra de Trânsito,Esquadra de Trânsito,969,080508,"Rua da Polícia de Segurança Pública, nº 32",8000-408,FARO,Dias úteis: 9h00-12h30 / 14h00-16h00 - Atendimento Policial Permanente,289899899,faretr@psp.pt,http://www.psp.pt,37.01501,-7.927247,237,Ministério da Administração Interna,2528,PSP
FARO - Esquadra de Investigação Criminal,Esquadra de Investigação Criminal,970,080508,"Rua da Polícia de Segurança Pública, nº 32",8000-408,FARO,Dias úteis: 9h00-12h30 / 14h00-16h00,289899899,fareic@rnsi.local,http://www.psp.pt,37.01501,-7.927247,237,Ministério da Administração Interna,2528,PSP
FARO - Esquadra de Intervenção e Fiscalização Policial,Esquadra de Intervenção e Fiscalização Policial,971,080508,"Rua da Polícia de Segurança Pública, nº 32",8000-408,FARO,Dias úteis: 9h00-12h30 / 14h00-16h00,289899899 - 289822022,div.faro@psp.pt,http://www.psp.pt,37.01501,-7.927247,237,Ministério da Administração Interna,2528,PSP
FARO - Divisão Policial,Divisão de Policia,972,080508,"Rua da Polícia de Segurança Pública, nº 32",8000-408,FARO,Sem Horário de Atendimento,289899899 - 289822022 - 961010164 - 962004367,div.faro@psp.pt,http://www.psp.pt,37.01501,-7.927247,237,Ministério da Administração Interna,2528,PSP
FARO - Esquadra,Esquadra de Polícia,973,080508,"Rua da Polícia de Segurança Pública, nº 32",8000-408,FARO,Atendimento Policial Permanente,289899899 - 289822022,div.faro@psp.pt,http://www.psp.pt,37.01501,-7.927247,237,Ministério da Administração Interna,2528,PSP
TAVIRA - Esquadra,Esquadra de Polícia,974,081412,"Rua da Atalaia, n.º2",8800-397,TAVIRA,Dias úteis: 9h00-12h30 / 14h00-16h00 - Atendimento Policial Permanente,281322022,faresqtav@psp.pt,http://www.psp.pt,37.122018,-7.64613,237,Ministério da Administração Interna,2528,PSP
OLHÃO - Esquadra,Esquadra de Polícia,975,081004,"Avenida 5 de Outubro, n.º 178",8700-304,OLHÃO,Dias úteis: 9h00-12h30 / 14h00-16h00 - Atendimento Policial Permanente,289710770,olhao.faro@psp.pt,http://www.psp.pt,37.02385,-7.843782,237,Ministério da Administração Interna,2528,PSP
VILA REAL DE SANTO ANTONIO - Esquadra,Esquadra de Polícia,976,081602,"Rua António Capa, n.ºs 34 / 36",8900-247,VILA REAL SANTO ANTÓNIO,Dias úteis: 9h00-12h30 / 14h00-16h00 - Atendimento Policial Permanente,281510780 - 281543066,vrsa.faro@psp.pt,http://www.psp.pt,37.196023,-7.416426,237,Ministério da Administração Interna,2528,PSP
PORTIMÃO - Divisão Policial,Divisão de Policia,977,081103,"Av. Miguel Bombarda, nº 16",8501-851,PORTIMÃO,Dias úteis: 9h00-12h30 / 14h00-16h00 - Atendimento Policial Permanente,282417717 - 282450580 - 968078114 - 968078118,divportimao.faro@psp.pt,http://www.psp.pt,37.134045,-8.538576,237,Ministério da Administração Interna,2528,PSP
PORTIMÃO - Esquadra de Trânsito,Esquadra de Trânsito,978,081103,"Av. Miguel Bombarda, nº 16",8501-851,PORTIMÃO,Dias úteis: 9h00-12h30 / 14h00-16h00 - Atendimento Policial Permanente,282417717 - 282450580 - 968078114 - 968078118,divportimao.faro@psp.pt,http://www.psp.pt,37.134045,-8.538576,237,Ministério da Administração Interna,2528,PSP
PORTIMÃO - Esquadra de Investigação Criminal,Esquadra de Investigação Criminal,979,081103,"Av. Miguel Bombarda, nº 16",8501-851,PORTIMÃO,Dias úteis: 9h00-12h30 / 14h00-16h00 - Atendimento Policial Permanente,282417717 - 282450580 - 968078114 - 968078118,divportimao.faro@psp.pt,http://www.psp.pt,37.134045,-8.538576,237,Ministério da Administração Interna,2528,PSP
PORTIMÃO - Esquadra de Intervenção e Fiscalização Policial,Esquadra de Intervenção e Fiscalização Policial,980,081103,"Av. Miguel Bombarda, nº 16",8501-851,PORTIMÃO,Dias úteis: 9h00-12h30 / 14h00-16h00 - Atendimento Policial Permanente,282417717 - 282450580 - 968078114 - 968078118,divportimao.faro@psp.pt,http://www.psp.pt,37.134045,-8.538576,237,Ministério da Administração Interna,2528,PSP
PORTIMÃO - Esquadra,Esquadra de Polícia,981,081103,"Av. Miguel Bombarda, n.º 16",8501-851,PORTIMÃO,Dias úteis: 9h00-12h30 / 14h00-16h00 - Atendimento Policial Permanente,282417717 - 282417510,divportimao.faro@psp.pt,http://www.psp.pt,37.134045,-8.538576,237,Ministério da Administração Interna,2528,PSP
LAGOS - Esquadra,Esquadra de Polícia,982,080708,"Sítio da Horta do Trigo, s/n",8600-324,LAGOS,Dias úteis: 9h00-12h30 / 14h00-16h00 - Atendimento Policial Permanente,282780240,lagos.faro@psp.pt,http://www.psp.pt,37.114580,-8.681073,237,Ministério da Administração Interna,2528,PSP
FARO - Divisão de Segurança Aeroportuaria,Segurança Aeroportuaria,983,080506,Aeroporto Internacional de Faro,8006-901,FARO,08h45/12h45 - 13h30/17h29,289800688 - 289897170,dsa.faro@psp.pt,http://www.psp.pt,37.016809,-7.970924,237,Ministério da Administração Interna,2528,PSP
FARO - Esquadra de Segurança Aeroportuaria,Segurança Aeroportuaria,984,080506,Aeroporto Internacional de Faro,8006-901,FARO,Atendimento Policial Permanente,289800688,dsa.faro@psp.pt,http://www.psp.pt,37.016809,-7.970924,237,Ministério da Administração Interna,2528,PSP
FARO - Segurança Aeroportuaria - Esquadra de Intervenção e Fiscalização Policial,Segurança Aeroportuaria,985,080506,Aeroporto Internacional de Faro,8006-901,FARO,08h45/12h45 - 13h30/17h29,289800688,dsa.faro@psp.pt,http://www.psp.pt,37.016809,-7.970924,237,Ministério da Administração Interna,2528,PSP
FARO - Força Destacada da Unidade Especial de Polícia,Unidade Especial,986,080506,Aeroporto Internacional de Faro,8006-901,FARO,Sem Horário de Atendimento,289897175,fardestci@psp.pt,http://www.psp.pt,37.016809,-7.970924,237,Ministério da Administração Interna,2528,PSP
GUARDA - Comando Distrital,Comando,987,090758,"Largo Frei Pedro da Guarda, nº 17",6301-852,GUARDA,Dias úteis: 9h00-12h30 / 14h00-16h00,271222022 - 271208340,cpguarda@psp.pt,http://www.psp.pt,40.537115,-7.267858,237,Ministério da Administração Interna,2528,PSP
GUARDA - Esquadra de Trânsito,Esquadra de Trânsito,988,090758,"Av. da Igreja, s/n",6300-839,GUARDA,Dias úteis: 9h00-12h30 / 14h00-16h00,271237022,grdesqtr@psp.pt,http://www.psp.pt,40.553746,-7.241581,237,Ministério da Administração Interna,2528,PSP
GUARDA - Esquadra de Investigação Criminal,Esquadra de Investigação Criminal,989,090758,"Gaveto da Rua Pedro Alvares Cabral com a Av. Almirante Gago Coutinho, s/n",6300-507,GUARDA,Sem Horário de Atendimento,271208340,0,http://www.psp.pt,40.540393,-7.265632,237,Ministério da Administração Interna,2528,PSP
GUARDA - Esquadra de Intervenção e Fiscalização Policial,Esquadra de Intervenção e Fiscalização Policial,990,090758,"Largo Frei Pedro da Guarda, nº 17",6301-852,GUARDA,Sem Horário de Atendimento,271222022 - 271208340,0,http://www.psp.pt,40.537115,-7.267858,237,Ministério da Administração Interna,2528,PSP
GUARDA - Esquadra,Esquadra de Polícia,991,090758,"Largo Frei Pedro da Guarda, nº 17",6301-852,GUARDA,Atendimento Policial Permanente,271222022,grdesqsede@psp.pt,http://www.psp.pt,40.537115,-7.267858,237,Ministério da Administração Interna,2528,PSP
GOUVEIA - Esquadra,Esquadra de Polícia,992,090625,"Av. Gen. Humberto Delgado, nº 36",6290-530,GOUVEIA,Atendimento Policial Permanente,238490290,grdesqgva@psp.pt,http://www.psp.pt,40.493902,-7.589833,237,Ministério da Administração Interna,2528,PSP
LEIRIA - Comando Distrital,Comando,993,100933,"Largo de São Pedro, n.º 20",2400-235,LEIRIA,Sem Horário de Atendimento,244859859 - 961042174 - 961042182,cpleiria@psp.pt,http://www.psp.pt,39.747041,-8.807489,237,Ministério da Administração Interna,2528,PSP
LEIRIA - Divisão Policial,Divisão de Policia,994,100933,"Largo de São Pedro, n.º 20",2400-235,LEIRIA,"8h30-12h30 / 14h00-17h00
dias úteis",244859859 - 961042174 - 961042182,1div.leiria@psp.pt,http://www.psp.pt,39.747041,-8.807489,237,Ministério da Administração Interna,2528,PSP
LEIRIA - Esquadra de Trânsito,Esquadra de Trânsito,995,100933,"Largo de São Pedro, n.º 20",2400-235,LEIRIA,Dias úteis: 9h00-12h30 / 14h00-16h00 - Atendimento Policial Permanente,244859859 - 961042174 - 961042182,esqtr.leiria@psp.pt,http://www.psp.pt,39.747041,-8.807489,237,Ministério da Administração Interna,2528,PSP
LEIRIA - Esquadra de Investigação Criminal,Esquadra de Investigação Criminal,996,100933,"Largo de São Pedro, n.º 20",2400-235,LEIRIA,Dias úteis: 9h00-12h30 / 14h00-16h00 - Atendimento Policial Permanente,244859859 - 961042174 - 961042184,eic.leiria@psp.pt,http://www.psp.pt,39.747041,-8.807489,237,Ministério da Administração Interna,2528,PSP
LEIRIA - Esquadra de Intervenção e Fiscalização Policial,Esquadra de Intervenção e Fiscalização Policial,997,100933,"Largo de São Pedro, n.º 20",2400-235,LEIRIA,Turnos Variados,244859859  - 961042174 - 961042184,eifp.leiria@psp.pt,http://www.psp.pt,39.763191,-8.806717,237,Ministério da Administração Interna,2528,PSP
LEIRIA - Esquadra,Esquadra de Polícia,998,100933,"Largo de São Pedro, n.º 20",2400-235,LEIRIA,Dias úteis: 9h00-12h30 / 14h00-16h00 - Atendimento Policial Permanente,244859859 - 961042174 - 961042182,esquadrasede.leiria@psp.pt,http://www.psp.pt,39.747041,-8.807489,237,Ministério da Administração Interna,2528,PSP
MARRAZES - Esquadra,Esquadra de Polícia,999,100934,Rua Joaquim Soares Ceia Simões,2415-508,LEIRIA,Dias úteis: 9h00-12h30 / 14h00-16h00 - Atendimento Policial Permanente,244843600,marrazes.leiria@psp.pt,http://www.psp.pt,39.763191,-8.806717,237,Ministério da Administração Interna,2528,PSP
MARINHA GRANDE - Esquadra,Esquadra de Polícia,1000,101001,Av. Arala Pinto - Casal do Malta,2430-069,MARINHA GRANDE,Dias úteis: 9h00-12h30 / 14h00-16h00 - Atendimento Policial Permanente,244573500,marinhagrande.leiria@psp.pt,http://www.psp.pt,39.741605,-8.930329,237,Ministério da Administração Interna,2528,PSP
POMBAL - Esquadra,Esquadra de Polícia,1001,101509,"Rua Alexandre Herculano, n.º 17",3100-494,POMBAL,Dias úteis: 9h00-12h30 / 14h00-16h00 - Atendimento Policial Permanente,236210190,pombal.leiria@psp.pt,http://www.psp.pt,39.916467,-8.628394,237,Ministério da Administração Interna,2528,PSP
CALDAS DA RAINHA - Divisão Policial,Divisão de Policia,1002,100617,"Rua 31 de Janeiro, n.º 32",2500-118,CALDAS DA RAINHA,Dias úteis: 9h00-12h30 / 14h00-16h00,262870360,soicra.leiria@psp.pt,http://www.psp.pt,39.409440,-9.137414,237,Ministério da Administração Interna,2528,PSP
CALDAS DA RAINHA - Esquadra de Trânsito,Esquadra de Trânsito,1003,100617,"Rua 31 de Janeiro, n.º 32",2500-118,CALDAS DA RAINHA,Dias úteis: 9h00-12h30 / 14h00-16h00,262870360,esqtrcra.leiria@psp.pt,http://www.psp.pt,39.409440,-9.137414,237,Ministério da Administração Interna,2528,PSP
CALDAS DA RAINHA - Esquadra de Investigação Criminal,Esquadra de Investigação Criminal,1004,100617,"Rua 31 de Janeiro, n.º 32",2500-118,CALDAS DA RAINHA,Dias úteis: 9h00-12h30 / 14h00-16h00,262870360,eiccra.leiria@psp.pt,http://www.psp.pt,39.409440,-9.137414,237,Ministério da Administração Interna,2528,PSP
CALDAS DA RAINHA - Esquadra de Intervenção e Fiscalização Policial,Esquadra de Intervenção e Fiscalização Policial,1005,100617,"Rua 31 de Janeiro, n.º 32",2500-118,CALDAS DA RAINHA,Dias úteis: 9h00-12h30 / 14h00-16h00,262870360,eifpcra.leiria@psp.pt,http://www.psp.pt,39.409440,-9.137414,237,Ministério da Administração Interna,2528,PSP
CALDAS DA RAINHA - Esquadra,Esquadra de Polícia,1006,100617,"Rua 31 de Janeiro, n.º 32",2500-118,CALDAS DA RAINHA,Dias úteis: 9h00-12h30 / 14h00-16h00 - Atendimento Policial Permanente,262870360,caldasdarainha.leiria@psp.pt,http://www.psp.pt,39.409440,-9.137414,237,Ministério da Administração Interna,2528,PSP
PENICHE - Esquadra,Esquadra de Polícia,1007,101407,"Rua Herois do Ultramar, s/n",2520-423,PENICHE,Dias úteis: 9h00-12h30 / 14h00-16h00 - Atendimento Policial Permanente,262790310,peniche.leiria@psp.pt,http://www.psp.pt,39.359707,-9.383867,237,Ministério da Administração Interna,2528,PSP
ALCOBAÇA - Esquadra,Esquadra de Polícia,1008,100121,"Rua de Olivença, s/n",2460-035,ALCOBAÇA,Dias úteis: 9h00-12h30 / 14h00-16h00 - Atendimento Policial Permanente,262505650,alcobaca.leiria@psp.pt,http://www.psp.pt,39.552277,-8.974388,237,Ministério da Administração Interna,2528,PSP
NAZARE - Esquadra,Esquadra de Polícia,1009,101102,"Rua Sub-Vila, s/n",2450-264,NAZARÉ,Dias úteis: 9h00-12h30 / 14h00-16h00 - Atendimento Policial Permanente,262550070,nazare.leiria@psp.pt,http://www.psp.pt,39.599112,-9.070323,237,Ministério da Administração Interna,2528,PSP
VIEIRA DE LEIRIA - Colonia de Ferias SSPSP,Varios,1010,100939,Colónia de Férias dos Serviços Sociais da PSP,2425,PRAIA DA VIEIRA,Sem Horário de Atendimento,244699200,0,http://www.psp.pt,39.878757,-8.966767,237,Ministério da Administração Interna,2528,PSP
BALEAL - PENICHE - Colonia de Ferias SSPSP,Varios,1011,101210,Colónia de Férias dos Serviços Sociais da PSP,2520,FERREL,Sem Horário de Atendimento,262760200,0,http://www.psp.pt,39.366027,-9.331574,237,Ministério da Administração Interna,2528,PSP
LISBOA - Comando Metropolitano,Comando,1012,110726,"Av.ª de Moscavide, nº 88 - Edifício da PSP",1886-502,MOSCAVIDE,Atendimento Policial Permanente,21POLICIA - 217654242 - 219449300 - 965990000,cmlisboa@psp.pt,http://www.psp.pt,38.78046389,-9.1031444,237,Ministério da Administração Interna,2528,PSP
LISBOA - Secção de Achados,Varios,1013,110633,"Praça cidade de Salazar, lote 180 - Olivais",1800-125,LISBOA,Sem Horário de Atendimento,218535403,0,http://www.psp.pt,38.764369,-9.117989,237,Ministério da Administração Interna,2528,PSP
LISBOA - Secção de Achados do AEROPORTO,Varios,1014,110633,"Edificio do Aeroporto, Aerogare das Partidas",1700-008,LISBOA,Atendimento Policial Permanente,218444530,0,http://www.psp.pt,38.769052,-9.129324,237,Ministério da Administração Interna,2528,PSP
LISBOA - Esquadra de Turismo,Esquadra de Turismo,1015,110665,Praça dos Restauradores - Palácio Foz,1250-187,LISBOA,Atendimento Policial Permanente,213421623,lsbetur@psp.pt,http://www.psp.pt,38.715852,-9.142532,237,Ministério da Administração Interna,2528,PSP
HOSPITAL DE SÃO JOSÉ - Posto de Polícia,Posto de Polícia,1016,110665,Rua José António Serrano,1150-199,LISBOA,Atendimento Policial Permanente,218841000,0,http://www.psp.pt,38.718087,-9.137267,237,Ministério da Administração Interna,2528,PSP
HOSPITAL DE SANTA MARIA - Posto de Polícia,Posto de Polícia,1017,110654,"Av. Prof Egas Moniz, s/n",1649-035,LISBOA,Atendimento Policial Permanente,217805000,0,http://www.psp.pt,38.748472,-9.161180,237,Ministério da Administração Interna,2528,PSP
HOSPITAL DE SÃO FRANCISCO XAVIER - Posto de Polícia,Posto de Polícia,1018,110658,Estrada Forte do Alto do Duque - São Francisco Xavier,1449-005,LISBOA,Atendimento Policial Permanente,213619609,0,http://www.psp.pt,38.707283,-9.217650,237,Ministério da Administração Interna,2528,PSP
PARQUE DE VIATURAS REBOCADAS - TELHEIRAS,Varios,1019,110618,"Azenhaga Torre do Fato, s/n",1600-298,LISBOA,Sem Horário de Atendimento,217157497,0,http://www.psp.pt,38.765784,-9.177304,237,Ministério da Administração Interna,2528,PSP
PARQUE DE VIATURAS REBOCADAS - RESTELO,Varios,1020,110658,"Rua Gregório Lopes, s/n",1400-195,LISBOA,Sem Horário de Atendimento,213016864,restelodt.lisboa@psp.pt,http://www.psp.pt,38.710306,-9.212058,237,Ministério da Administração Interna,2528,PSP
PARQUE DE VIATURAS REBOCADAS - CAMPO PEQUENO,Varios,1021,110666,"Av. Sacadura Cabral, nº 40",1276-276,LISBOA,Sem Horário de Atendimento,217510723 - 969860576,cgrandedt.lisboa@psp.pt,http://www.psp.pt,38.7591815,-9.1592610,237,Ministério da Administração Interna,2528,PSP
LISBOA - Núcleo de Segurança Privada,Varios,1022,110726,"Av.ª de Moscavide, nº 88 - Edifício da PSP",1886-502,MOSCAVIDE,Sem Horário de Atendimento,219449330,0,http://www.psp.pt,38.78046389,-9.1031444,237,Ministério da Administração Interna,2528,PSP
POLICIA MUNICIPAL DE LISBOA,Varios,1023,110610,"Rua Cardeal Saraiva, s/n",1070-045,LISBOA,Sem Horário de Atendimento,217825200,pm@cm-lisboa.pt,http://www.psp.pt,38.736011,-9.162307,237,Ministério da Administração Interna,2528,PSP
POLICIA MUNICIPAL DE LISBOA - PARQUE DE VIATURAS REBOCADAS,Varios,1024,111012,"Av. Colégio Militar, s/n",1500,LISBOA,Sem Horário de Atendimento,218170300,pm@cm-lisboa.pt,http://www.psp.pt,38.756506,-9.185345,237,Ministério da Administração Interna,2528,PSP
GOMES FREIRE - 1ª Divisão Policial LX,Divisão de Policia,1025,110656,"Rua Gomes Freire, n.º 92",1169-140,LISBOA,Sem Horário de Atendimento,213513600,1div.lisboa@psp.pt,http://www.psp.pt,38.725472,-9.140464,237,Ministério da Administração Interna,2528,PSP
GOMES FREIRE - 1ª Esquadra de Investigação Criminal,Esquadra de Investigação Criminal,1026,110656,"Rua Gomes Freire, n.º 92",1169-140,LISBOA,Sem Horário de Atendimento,213513621,1eic.lisboa@psp.pt,http://www.psp.pt,38.725472,-9.140464,237,Ministério da Administração Interna,2528,PSP
GOMES FREIRE - Esquadra de Intervenção e Fiscalização Policial,Esquadra de Intervenção e Fiscalização Policial,1027,110656,"Rua Gomes Freire, n.º 92",1169-140,LISBOA,Sem Horário de Atendimento,213513632,0,http://www.psp.pt,38.725472,-9.140464,237,Ministério da Administração Interna,2528,PSP
ESQUADRA DA BAIXA POMBALINA - 2ª Esquadra LX,Esquadra de Polícia,1028,110665,"Rua da Prata, n.º 68",1100-039,LISBOA,Atendimento Policial Permanente,213427379,0,http://www.psp.pt,38.7085285,-9.1378395,237,Ministério da Administração Interna,2528,PSP
BAIRRO ALTO - 3ª Esquadra LX,Esquadra de Polícia,1029,110661,"Rua da Atalaia, nº 138 - 144 com a Travessa Água da Flor",1200-033,LISBOA,Atendimento Policial Permanente,213403410,0,http://www.psp.pt,38.7114063,-9.1471141,237,Ministério da Administração Interna,2528,PSP
SANTA MARTA - 4ª Esquadra LX,Esquadra de Polícia,1030,110666,"Rua de Santa Marta, nº 61 B",1169-061,LISBOA,Atendimento Policial Permanente,213584640,0,http://www.psp.pt,38.7254756,-9.1469036,237,Ministério da Administração Interna,2528,PSP
CAIS DO SODRÉ - BOAVISTA - 5ª Esquadra LX,Esquadra de Polícia,1031,110661,"Rua da Boavista, n.º 1",1200-066,LISBOA,Sem Horário de Atendimento,213426389,0,http://www.psp.pt,38.708439,-9.147364,237,Ministério da Administração Interna,2528,PSP
MOURARIA - 6ª Esquadra LX,Esquadra de Polícia,1032,110665,"Rua da Mouraria, n.º 64, Edifício Amparo",1100-364,LISBOA,Atendimento Policial Permanente,218864521,0,http://www.psp.pt,38.715937,-9.135393,237,Ministério da Administração Interna,2528,PSP
ROSSIO - 8ª Esquadra LX,Esquadra de Polícia,1033,110665,"Largo do Regedor, n.º 2",1150-277,LISBOA,Sem Horário de Atendimento,213427380,0,http://www.psp.pt,38.714959,-9.140152,237,Ministério da Administração Interna,2528,PSP
RATO - 22ª Esquadra LX,Esquadra de Polícia,1034,110666,"Largo do Rato, n.º 1",1250-185,LISBOA,Atendimento Policial Permanente,213858870,0,http://www.psp.pt,38.720336,-9.155889,237,Ministério da Administração Interna,2528,PSP
OLIVAIS SUL - 2ª Divisão Policial LX,Divisão de Policia,1035,110633,"Rua Cidade de Nampula, s/n",1800-105,LISBOA,Atendimento Policial Permanente,218547200,2div.lisboa@psp.pt,http://www.psp.pt,38.764096,-9.120310,237,Ministério da Administração Interna,2528,PSP
OLIVAIS - 2ª Esquadra de Investigação Criminal,Esquadra de Investigação Criminal,1036,110633,"Avenida Cidade Lourenço Marques, Praceta A - Edifício  P.S.P.",1800-093,LISBOA,Sem Horário de Atendimento,218547215,2eic.lisboa@psp.pt,http://www.psp.pt,38.764302,-9.12001,237,Ministério da Administração Interna,2528,PSP
OLIVAIS - Esquadra de Intervenção e Fiscalização Policial,Esquadra de Intervenção e Fiscalização Policial,1037,110633,"Av. Cidade de Lourenço Marques, Prac.A s/n",1800-093,LISBOA,Sem Horário de Atendimento,218547214,0,http://www.psp.pt,38.764302,-9.12001,237,Ministério da Administração Interna,2528,PSP
CHELAS - ZONA I - 14ª Esquadra LX,Esquadra de Polícia,1038,110621,"Via Principal de Peões, Lote 105 - A",1950-244,LISBOA,Atendimento Policial Permanente,218374060,0,http://www.psp.pt,38.753296,-9.114362,237,Ministério da Administração Interna,2528,PSP
CHELAS - ZONA J - 16ª Esquadra LX,Esquadra de Polícia,1039,110621,"Avenida João Paulo II, Lote 526",1950-159,LISBOA,Atendimento Policial Permanente,218380821,0,http://www.psp.pt,38.747323,-9.112321,237,Ministério da Administração Interna,2528,PSP
OLIVAIS - 34ª Esquadra LX,Esquadra de Polícia,1040,110633,Avenida Cidade Lourenço Marques - Praceta A,1800-093,LISBOA,Atendimento Policial Permanente,218547210,0,http://www.psp.pt,38.764302,-9.12001,237,Ministério da Administração Interna,2528,PSP
BELA VISTA - 38ª Esquadra LX,Esquadra de Polícia,1041,110621,"Rua Ricardo Ornelas, Lote 378  R/C A",1950-331,LISBOA,Sem Horário de Atendimento,218373988,0,http://www.psp.pt,38.752085,-9.124733,237,Ministério da Administração Interna,2528,PSP
PARQUE DAS NAÇÕES - 40ª Esquadra LX,Esquadra de Polícia,1042,110662,"Rua Ilha dos Amores, Lote 43901-J",1990-371,MOSCAVIDE,Atendimento Policial Permanente,218955810,0,http://www.psp.pt,38.782165,-9.095022,237,Ministério da Administração Interna,2528,PSP
BENFICA - 3ª Divisão Policial LX,Divisão de Policia,1043,110608,"Rua André de Resende, s/n",1500-040,LISBOA,Sem Horário de Atendimento,217108200,3div.lisboa@psp.pt,http://www.psp.pt,38.745717,-9.199132,237,Ministério da Administração Interna,2528,PSP
BENFICA - 3ª Esquadra de Investigação Criminal,Esquadra de Investigação Criminal,1044,110608,"Rua André de Resende, s/n",1500-040,LISBOA,Sem Horário de Atendimento,217108274,3eic.lisboa@psp.pt,http://www.psp.pt,38.745717,-9.199132,237,Ministério da Administração Interna,2528,PSP
BENFICA - Esquadra de Intervenção e Fiscalização Policial,Esquadra de Intervenção e Fiscalização Policial,1045,110608,"Rua André de Resende, s/n",1500-040,LISBOA,Sem Horário de Atendimento,217108200,0,http://www.psp.pt,38.745717,-9.199132,237,Ministério da Administração Interna,2528,PSP
CAMPO GRANDE - 18ª Esquadra LX,Esquadra de Polícia,1046,110654,"Rua Afonso Lopes Vieira, n.º 2 - A",1700-012,LISBOA,Atendimento Policial Permanente,217961834,0,http://www.psp.pt,38.749589,-9.146884,237,Ministério da Administração Interna,2528,PSP
TELHEIRAS - 19ª Esquadra LX,Esquadra de Polícia,1047,110618,"Rua Professor Luís Reis dos Santos, Lote H - 4 R/C",1600-641,LISBOA,Atendimento Policial Permanente,217595604,0,http://www.psp.pt,38.762626,-9.164970,237,Ministério da Administração Interna,2528,PSP
BENFICA - 20ª Esquadra LX,Esquadra de Polícia,1048,110608,"Rua André de Resende, s/n",1500-040,LISBOA,Atendimento Policial Permanente,217108220,0,http://www.psp.pt,38.745467,-9.199575,237,Ministério da Administração Interna,2528,PSP
CAMPOLIDE - 21ª Esquadra LX,Esquadra de Polícia,1049,110610,Rua Marquês da Fronteira - Palácio da Justiça,1098-001,LISBOA,Atendimento Policial Permanente,213858817,0,http://www.psp.pt,38.733006,-9.159147,237,Ministério da Administração Interna,2528,PSP
REGO - 31ª Esquadra LX,Esquadra de Polícia,1050,110657,"Av. Santos Dumont, nº 75 - Rego",1050-203,LISBOA,Atendimento Policial Permanente,217977030,0,http://www.psp.pt,38.739098,-9.156966,237,Ministério da Administração Interna,2528,PSP
BAIRRO DA HORTA NOVA - 32ª Esquadra LX,Esquadra de Polícia,1051,110611,"Rua Alfredo Ferraz, Lote A - 9 - Bairro da Horta Nova",1600-003,LISBOA,Atendimento Policial Permanente,217164339,0,http://www.psp.pt,38.766817,-9.181513,237,Ministério da Administração Interna,2528,PSP
BAIRRO PADRE CRUZ - 36ª Esquadra LX,Esquadra de Polícia,1052,110611,"Rua Professor Miller Guerra, Lote 44 Loja - Bairro Padre Cruz",1600-647,LISBOA,Atendimento Policial Permanente,217164314,0,http://www.psp.pt,38.769619,-9.193306,237,Ministério da Administração Interna,2528,PSP
SERAFINA - 37ª Esquadra LX,Esquadra de Polícia,1053,110610,"Rua Miguel Ângelo de Blasco, n.º 25 - Bairro da Serafina",1070-181,LISBOA,Atendimento Policial Permanente,213858346,0,http://www.psp.pt,38.733504,-9.171572,237,Ministério da Administração Interna,2528,PSP
MUSGUEIRA - 41ª Esquadra LX,Esquadra de Polícia,1054,110618,"Rua Maria José da Guia, n.º 14 B - Bairro da Cruz Vermelha",1750-358,LISBOA,Atendimento Policial Permanente,217595570,0,http://www.psp.pt,38.777889,-9.153178,237,Ministério da Administração Interna,2528,PSP
CARNIDE - 42ª Esquadra LX,Esquadra de Polícia,1055,110611,"Rua Manuela Porto, n.º 14 - A",1500-422,LISBOA,Atendimento Policial Permanente,217144989,0,http://www.psp.pt,38.759125,-9.192197,237,Ministério da Administração Interna,2528,PSP
BAIRRO DA BOAVISTA - 43ª Esquadra LX,Esquadra de Polícia,1056,110608,Largo Rainha D. Leonor - Bairro da Boavista,1500-536,Lisboa,Atendimento Policial Permanente,217606073,0,http://www.psp.pt,38.733271,-9.206201,237,Ministério da Administração Interna,2528,PSP
ALTA DE LISBOA - 44ª Esquadra LX,Esquadra de Polícia,1057,110618,"Avenida Maria Helena Vieira da Silva, n.º 48",1750-184,LISBOA,Sem Horário de Atendimento,217501251,0,http://www.psp.pt,38.767004,-9.150109,237,Ministério da Administração Interna,2528,PSP
CENTRO COMERCIAL COLOMBO - LX - Posto de Polícia,Posto de Polícia,1058,110611,Rua Albert Einstein – Porta Norte do C. Com. Colombo,1500-676,LISBOA,Sem Horário de Atendimento,217113501,0,http://www.psp.pt,38.755793,-9.188470,237,Ministério da Administração Interna,2528,PSP
CALVÁRIO - 4ª Divisão Policial LX,Divisão de Policia,1059,110602,"Largo do Calvário, n.º 7",1300-113,LISBOA,Sem Horário de Atendimento,213619600,4div.lisboa@psp.pt,http://www.psp.pt,38.704489,-9.177768,237,Ministério da Administração Interna,2528,PSP
CALVARIO - 4ª Esquadra de Investigação Criminal,Esquadra de Investigação Criminal,1060,110602,"Largo do Calvário, n.º 7",1300-113,LISBOA,Sem Horário de Atendimento,213619600,4eic.lisboa@psp.pt,http://www.psp.pt,38.704419,-9.177759,237,Ministério da Administração Interna,2528,PSP
CALVARIO - Esquadra de Intervenção e Fiscalização Policial,Esquadra de Intervenção e Fiscalização Policial,1061,110602,"Largo do Calvário, nº 7",1300-113,LISBOA,Sem Horário de Atendimento,213619600,0,http://www.psp.pt,38.704412,-9.177753,237,Ministério da Administração Interna,2528,PSP
CAMPO DE OURIQUE - 24ª Esquadra LX,Esquadra de Polícia,1062,110659,"Rua Azedo Gneco, n.º 84",1350-039,LISBOA,Atendimento Policial Permanente,213619624,0,http://www.psp.pt,38.715390,-9.167958,237,Ministério da Administração Interna,2528,PSP
BELÉM - 26ª Esquadra LX,Esquadra de Polícia,1063,110658,Praça Afonso de Albuquerque,1300-004,LISBOA,Atendimento Policial Permanente,213619626,0,http://www.psp.pt,38.697342,-9.201610,237,Ministério da Administração Interna,2528,PSP
CALVÁRIO - 28ª Esquadra LX,Esquadra de Polícia,1064,110602,"Largo do Calvário, n.º 7",1300-113,LISBOA,Atendimento Policial Permanente,213619628,0,http://www.psp.pt,38.704430,-9.177762,237,Ministério da Administração Interna,2528,PSP
QUINTA DO CABRINHA - AVENIDA DE CEUTA - 29ª Esquadra LX,Esquadra de Polícia,1065,110602,"Rua do Bairro Quinta do Cabrinha, nº 5 D",1300-906,LISBOA,Atendimento Policial Permanente,213619629,0,http://www.psp.pt,38.711013,-9.175150,237,Ministério da Administração Interna,2528,PSP
LAPA - 30ª Esquadra LX,Esquadra de Polícia,1066,110660,"Rua Miguel Lupi, nº 6",1200-725,LISBOA,Atendimento Policial Permanente,213619630,0,http://www.psp.pt,38.711729,-9.155173,237,Ministério da Administração Interna,2528,PSP
PENHA DE FRANÇA - 5ª Divisão Policial LX,Divisão de Policia,1067,110663,Av. Coronel Eduardo Galhardo - Edifício da P.S.P.,1170-105,LISBOA,Sem Horário de Atendimento,218113200,5div.lisboa@psp.pt,http://www.psp.pt,38.727771,-9.127536,237,Ministério da Administração Interna,2528,PSP
PENHA DE FRANÇA - 5ª Esquadra de Investigação Criminal,Esquadra de Investigação Criminal,1068,110663,Avenida Coronel Eduardo Galhardo - Edifício P.S.P.,1170-105,LISBOA,Sem Horário de Atendimento,218113262,5eic.lisboa@psp.pt,http://www.psp.pt,38.727771,-9.127536,237,Ministério da Administração Interna,2528,PSP
PENHA DE FRANÇA - Esquadra de Intervenção e Fiscalização Policial,Esquadra de Intervenção e Fiscalização Policial,1069,110663,Av. Coronel Eduardo Galhardo - Edifício da P.S.P.,1170-105,LISBOA,Sem Horário de Atendimento,218113200,0,http://www.psp.pt,38.727771,-9.127536,237,Ministério da Administração Interna,2528,PSP
ARROIOS - 10ª Esquadra LX,Esquadra de Polícia,1070,110656,"Rua de Arroios, n.º 164 - A",1000-061,LISBOA,Atendimento Policial Permanente,213163670 - 213163676,0,http://www.psp.pt,38.731692,-9.136417,237,Ministério da Administração Interna,2528,PSP
PENHA DE FRANÇA - 11ª Esquadra LX,Esquadra de Polícia,1071,110663,Av. Coronel Eduardo Galhardo - Edifício P.S.P.,1170-105,LISBOA,Atendimento Policial Permanente,218113214,0,http://www.psp.pt,38.727771,-9.127536,237,Ministério da Administração Interna,2528,PSP
OLAIAS - 12ª Esquadra LX,Esquadra de Polícia,1072,110655,"Rua Américo Durão, n.º 3 - A / B",1900-063,LISBOA,Atendimento Policial Permanente,218414250,0,http://www.psp.pt,38.739492,-9.125701,237,Ministério da Administração Interna,2528,PSP
CAMINHOS DE FERRO - 15ª Esquadra LX,Esquadra de Polícia,1073,110665,"Largo Museu da Artilharia, n.º 1",1100-366,LISBOA,Atendimento Policial Permanente,218879900,0,http://www.psp.pt,38.712814,-9.124960,237,Ministério da Administração Interna,2528,PSP
ALTA DE LISBOA - Divisão de Trânsito,Divisão de Trânsito,1074,110618,"Avenida Maria Helena Vieira da Silva, n.º 48",1750-184,LISBOA,Atendimento Policial Permanente,217501200,dt.lisboa@psp.pt,http://www.psp.pt,38.767004,-9.150109,237,Ministério da Administração Interna,2528,PSP
ALTA DE LISBOA - DIVISÃO DE TRÂNSITO - Esquadra de Apoio,Esquadra de Trânsito,1075,110618,"Avenida Maria Helena Vieira da Silva, nº 48",1750-184,LISBOA,Atendimento Policial Permanente,217501200,0,http://www.psp.pt,38.767004,-9.150109,237,Ministério da Administração Interna,2528,PSP
ALTA DE LISBOA - TRÂNSITO - Esquadra de Fiscalização Tecnica,Esquadra de Trânsito,1076,110618,"Avenida Maria Helena Vieira da Silva, nº 48",1750-184,LISBOA,Sem Horário de Atendimento,217501249,eftecnicadt.lisboa@psp.pt,http://www.psp.pt,38.767004,-9.150109,237,Ministério da Administração Interna,2528,PSP
ALTA DE LISBOA - TRÂNSITO - Esquadra de Intervencão e Fiscalização,Esquadra de Trânsito,1077,110618,"Avenida Maria Helena Vieira da Silva, nº 48",1750-184,LISBOA,Sem Horário de Atendimento,217501244,0,http://www.psp.pt,38.767004,-9.150109,237,Ministério da Administração Interna,2528,PSP
ALTA DE LISBOA - TRÂNSITO - Esquadra Moto,Esquadra de Trânsito,1078,110618,"Avenida Maria Helena Vieira da Silva, nº 48",1750-184,LISBOA,Sem Horário de Atendimento,217501247,esqmotodt.lisboa@psp.pt,http://www.psp.pt,38.767004,-9.150109,237,Ministério da Administração Interna,2528,PSP
ALTA DE LISBOA - TRÂNSITO - Brigada de Prevenção Criminal,Esquadra de Investigação Criminal,1079,110618,"Avenida Maria Helena Vieira da Silva, nº 48",1750-184,LISBOA,Sem Horário de Atendimento,217501278,0,http://www.psp.pt,38.767004,-9.150109,237,Ministério da Administração Interna,2528,PSP
ALTA DE LISBOA - TRÂNSITO - Esquadra de Sinistralidade Rodoviaria,Esquadra de Trânsito,1080,110618,"Avenida Maria Helena Vieira da Silva, nº 48",1750-184,LISBOA,Atendimento Policial Permanente,217501245,0,http://www.psp.pt,38.767004,-9.150109,237,Ministério da Administração Interna,2528,PSP
ALTA DE LISBOA - TRÂNSITO - 1ª Esquadra,Esquadra de Trânsito,1081,110618,"Avenida Maria Helena Vieira da Silva, nº 48",1750-184,LISBOA,Sem Horário de Atendimento,217501241,0,http://www.psp.pt,38.767004,-9.150109,237,Ministério da Administração Interna,2528,PSP
ALTA DE LISBOA - TRÂNSITO - 2ª Esquadra,Esquadra de Trânsito,1082,110618,"Avenida Maria Helena Vieira da Silva, nº 48",1750-184,LISBOA,Sem Horário de Atendimento,217501242,0,http://www.psp.pt,38.767004,-9.150109,237,Ministério da Administração Interna,2528,PSP
ALTA DE LISBOA - TRÂNSITO - 3ª Esquadra,Esquadra de Trânsito,1083,110618,"Avenida Maria Helena Vieira da Silva, nº 48",1750-184,LISBOA,Sem Horário de Atendimento,217501243,0,http://www.psp.pt,38.767004,-9.150109,237,Ministério da Administração Interna,2528,PSP
ALTA DE LISBOA - TRÂNSITO - 4ª Esquadra,Esquadra de Trânsito,1084,110618,"Avenida Maria Helena Vieira da Silva, nº 48",1750-184,LISBOA,Sem Horário de Atendimento,217501244,0,http://www.psp.pt,38.767004,-9.150109,237,Ministério da Administração Interna,2528,PSP
CAMINHOS DE FERRO - TRÂNSITO - 1ª Secção de Acidentes,Varios,1085,110665,"Largo Museu da Artilharia, n.º 1",1100-366,LISBOA,Atendimento Policial Permanente,218879900,1acidentesdt.lisboa@psp.pt,http://www.psp.pt,38.712814,-9.124960,237,Ministério da Administração Interna,2528,PSP
BENFICA - TRÂNSITO - Secção de Investigação de Acidentes de Viação,Varios,1086,110608,"Rua André de Resende, s/n",1500-040,LISBOA,Atendimento Policial Permanente,217108281 - 217108282,siavdt.lisboa@psp.pt,http://www.psp.pt,38.745717,-9.199132,237,Ministério da Administração Interna,2528,PSP
SECÇÃO DE CONTRA-ORDENAÇÕES DA DIVISÃO DE TRÂNSITO,Varios,1087,110656,"Rua José Estêvão, nº 137",1150-201,LISBOA,Sem Horário de Atendimento,213303130,scr.dt.lisboa@psp.pt,http://www.psp.pt,38.7310722,-9.1376278,237,Ministério da Administração Interna,2528,PSP
AMADORA - Divisão Policial,Divisão de Policia,1088,111516,"Av. Movimento das Forças Armadas, n.º 14 - 1º",2700-596,AMADORA,Sem Horário de Atendimento,214929590,divamadora.lisboa@psp.pt,http://www.psp.pt,38.761093,-9.235829,237,Ministério da Administração Interna,2528,PSP
QUELUZ - AMADORA - Esquadra de Trânsito,Esquadra de Trânsito,1089,111126,Rua Adriano Correia de Oliveira,2745-055,QUELUZ,Atendimento Policial Permanente,214340225,0,http://www.psp.pt,38.757386,-9.249470,237,Ministério da Administração Interna,2528,PSP
AMADORA - Esquadra de Investigação Criminal,Esquadra de Investigação Criminal,1090,111516,"Praceta Carlos Pinhão, nº 1 - 1º",2700-930,AMADORA,Sem Horário de Atendimento,214946210 - 214936816,eicamadora.lisboa@psp.pt,http://www.psp.pt,38.770473,-9.227160,237,Ministério da Administração Interna,2528,PSP
AMADORA - Esquadra de Intervenção e Fiscalização Policial,Esquadra de Intervenção e Fiscalização Policial,1091,111512,Estrada de Alfragide. nº 53. Letras AC,2610-006,AMADORA,Sem Horário de Atendimento,214704354,eicamadora.lisboa@psp.pt,http://www.psp.pt,38.7379,"-9,230367",237,Ministério da Administração Interna,2528,PSP
MINA - AMADORA - 60ª Esquadra LX,Esquadra de Polícia,1092,111516,"Av. Movimento das Forças Armadas, n. 14 - R/C",2700-596,AMADORA,Atendimento Policial Permanente,214929630,0,http://www.psp.pt,38.761093,-9.235829,237,Ministério da Administração Interna,2528,PSP
CASAL DE SÃO BRÁS - AMADORA - 60ª-A Esquadra LX,Esquadra de Polícia,1093,111516,"Praceta Carlos Pinhão, nº 1",2700-930,AMADORA,Atendimento Policial Permanente,214936816 - 214946210,0,http://www.psp.pt,38.770473,-9.227160,237,Ministério da Administração Interna,2528,PSP
REBOLEIRA - AMADORA - 61ª Esquadra LX,Esquadra de Polícia,1094,111517,Praça Félix Correia,2720-228,REBOLEIRA,Atendimento Policial Permanente,214992330,0,http://www.psp.pt,38.752703,-9.230547,237,Ministério da Administração Interna,2528,PSP
DAMAIA - AMADORA - 63ª Esquadra LX,Esquadra de Polícia,1095,111513,"Rua Bernardino Machado, n.º 4",2720-066,AMADORA,Atendimento Policial Permanente,214971429,0,http://www.psp.pt,38.743264,-9.218809,237,Ministério da Administração Interna,2528,PSP
ALFRAGIDE - AMADORA - 64ª Esquadra LX,Esquadra de Polícia,1096,111517,Estrada de Alfragide S/N,2720-016,ALFRAGIDE,Atendimento Policial Permanente,214704350,0,http://www.psp.pt,38.737722,-9.213426,237,Ministério da Administração Interna,2528,PSP
BRANDOA - AMADORA - 65ª Esquadra LX,Esquadra de Polícia,1097,111514,"Estrada da Brandoa, s/n",2650-363,AMADORA,Atendimento Policial Permanente,214760791,0,http://www.psp.pt,38.764656,-9.212992,237,Ministério da Administração Interna,2528,PSP
CENTRO COMERCIAL DOLCE VITA TEJO - BRANDOA/AMADORA - Posto de Polícia,Posto de Polícia,1098,111514,Avª. Cruzeiro Seixas - Brandoa,2650-504,AMADORA,Sem Horário de Atendimento,214782613,0,http://www.psp.pt,38.77770278,-9.2206,237,Ministério da Administração Interna,2528,PSP
ALFORNELOS - AMADORA - 65ª-A Esquadra LX,Esquadra de Polícia,1099,111514,"Av.ª Capitães de Abril, n.º 4 - A",2650-349,AMADORA,Atendimento Policial Permanente,214767215,0,http://www.psp.pt,38.760600,-9.205096,237,Ministério da Administração Interna,2528,PSP
VENDA-NOVA - AMADORA - 67ª Esquadra,Esquadra de Polícia,1100,111515,"Praceta Teresa Gomes, n. 2 - B",2700-808,VENDA-NOVA,Atendimento Policial Permanente,214744899,0,http://www.psp.pt,38.752589,-9.21117,237,Ministério da Administração Interna,2528,PSP
AMADORA - PARQUE A-DA-BEJA,Varios,1101,111516,"Rua António Freitas, A-da-Beja",2650-385,AMADORA,Atendimento Policial Permanente,219809191,0,http://www.psp.pt,38.786975,-9.23335278,237,Ministério da Administração Interna,2528,PSP
HOSPITAL FERNANDO DA FONSECA - Posto de Polícia,Posto de Polícia,1102,111517,Estrada IC19 – Hospital Fernando da Fonseca,2720-276,AMADORA,Atendimento Policial Permanente,214348392,0,http://www.psp.pt,38.744091,-9.246276,237,Ministério da Administração Interna,2528,PSP
CASCAIS - Divisão Policial,Divisão de Policia,1103,110508,"Rua Afonso Sanches, n.º 26",2750-281,CASCAIS,Sem Horário de Atendimento,214839100 - 214839101,divcascais.lisboa@psp.pt,http://www.psp.pt,38.699574,-9.423099,237,Ministério da Administração Interna,2528,PSP
CASCAIS - Esquadra de Turismo,Esquadra de Turismo,1104,111125,"Largo Mestre Henrique Anjos, s/n",2750,CASCAIS,Sem Horário de Atendimento,214814067,lsbcscetur@psp.pt,http://www.psp.pt,38.6979472,-9.4193972,237,Ministério da Administração Interna,2528,PSP
CASCAIS - Esquadra de Trânsito,Esquadra de Trânsito,1105,110507,"Rua Fernando Lopes Graça, n.º 504 A/B - Urbanização Checlos",2775-570,CARCAVELOS,Atendimento Policial Permanente,214536818,div.cascais.lisboa@psp.pt,http://www.psp.pt,38.699361,-9.33896389,237,Ministério da Administração Interna,2528,PSP
CASCAIS - Esquadra de Investigação Criminal,Esquadra de Investigação Criminal,1106,110501,"Av. Piemonte, 150 - Monte Estoril",2645-550,CASCAIS,Sem Horário de Atendimento,214826850,eiccascais.lisboa@psp.pt,http://www.psp.pt,38.712022,-9.407852,237,Ministério da Administração Interna,2528,PSP
CASCAIS - Esquadra de Intervenção e Fiscalização,Esquadra de Intervenção e Fiscalização Policial,1107,110508,"Rua Afonso Sanches, n.º 26",2750-281,CASCAIS,Sem Horário de Atendimento,214839100 - 214839101,0,http://www.psp.pt,38.699574,-9.423099,237,Ministério da Administração Interna,2528,PSP
CASCAIS - 50ª Esquadra LX,Esquadra de Polícia,1108,110508,"Largo Mestre Henrique Anjos, s/n",2750-411,CASCAIS,Atendimento Policial Permanente,214814060,0,http://www.psp.pt,38.6979472,-9.4193972,237,Ministério da Administração Interna,2528,PSP
ESTORIL - CASCAIS - 51ª Esquadra LX,Esquadra de Polícia,1109,110508,"Av. Portugal, n.º 423",2765-272,ESTORIL,Atendimento Policial Permanente,214646700 - 214646706,esquadrasecxxi@psp.pt,http://www.psp.pt,38.709779,-9.395959,237,Ministério da Administração Interna,2528,PSP
PAREDE - CASCAIS - 52ª Esquadra LX,Esquadra de Polícia,1110,110507,Rua de Timor N.º 20,2775-291,PAREDE,Atendimento Policial Permanente,214560545,0,http://www.psp.pt,38.692687,-9.358544,237,Ministério da Administração Interna,2528,PSP
CARCAVELOS - CASCAIS - 54ª Esquadra LX,Esquadra de Polícia,1111,110507,"Rua João da Silva, lote 2 - R/C",2775-586,CARCAVELOS,Atendimento Policial Permanente,214584630 - 214584631,0,http://www.psp.pt,38.689294,-9.336743,237,Ministério da Administração Interna,2528,PSP
TRAJOUCE - CASCAIS - 56ª Esquadra LX,Esquadra de Polícia,1112,110506,"Rua dos Bons Amigos, n.º 106 - D",2785-172,SÃO DOMINGOS DE RANA,Atendimento Policial Permanente,214453619,0,http://www.psp.pt,38.736881,-9.341366,237,Ministério da Administração Interna,2528,PSP
LOURES - Divisão Policial,Divisão de Policia,1113,110728,Rua José Dias Coelho- Bairro Operário s\n,2695-713,SÃO JOÃO DA TALHA,Sem Horário de Atendimento,219946760,divloures.lisboa@psp.pt,http://www.psp.pt,38.818566,-9.095822,237,Ministério da Administração Interna,2528,PSP
LOURES - Esquadra de Trânsito,Esquadra de Trânsito,1114,110707,"Rua António Aleixo, nº 1",2675-000,POVOA DE SANTO ADRIÃO,Atendimento Policial Permanente,219380200 - 219380203,0,http://www.psp.pt,38.798292,-9.165901,237,Ministério da Administração Interna,2528,PSP
LOURES - Esquadra de Investigação Criminal,Esquadra de Investigação Criminal,1115,111603,"Rua Gil Eanes, nº 4",2675-360,ODIVELAS,Sem Horário de Atendimento,219347951 - 219347964,0,http://www.psp.pt,38.789458,-9.178776,237,Ministério da Administração Interna,2528,PSP
LOURES - Esquadra de Intervenção e Fiscalização,Esquadra de Intervenção e Fiscalização Policial,1116,110728,Rua José Dias Coelho- Bairro Operário s\n,2695-713,SÃO JOÃO DA TALHA,Sem Horário de Atendimento,219946760,0,http://www.psp.pt,38.818566,-9.095822,237,Ministério da Administração Interna,2528,PSP
LOURES - 70ª Esquadra LX,Esquadra de Polícia,1117,110707,"Rua Barbosa de Resende, 4",2670-420,LOURES,Atendimento Policial Permanente,219835502,0,http://www.psp.pt,38.830573,-9.168308,237,Ministério da Administração Interna,2528,PSP
SACAVÉM - LOURES - 39ª Esquadra LX,Esquadra de Polícia,1118,110727,Rua Sport Grupo Sacavenense - Quinta do Património,2685-011,SACAVÉM,Atendimento Policial Permanente,219498260,0,http://www.psp.pt,38.789637,-9.105259,237,Ministério da Administração Interna,2528,PSP
CAMARATE - LOURES - Esquadra,Esquadra de Polícia,1119,111603,Rua dos Bombeiros Voluntários de Camarate,2680,CAMARATE,Atendimento Policial Permanente,219484330,0,http://www.psp.pt,38.799958,-9.133187,237,Ministério da Administração Interna,2528,PSP
ODIVELAS - LOURES - 71ª Esquadra LX,Esquadra de Polícia,1120,111603,"Rua Gil Eanes, 4",2675-360,ODIVELAS,Atendimento Policial Permanente,219347951 - 219347964,0,http://www.psp.pt,38.789458,-9.178776,237,Ministério da Administração Interna,2528,PSP
PONTINHA - LOURES - 73ª Esquadra LX,Esquadra de Polícia,1121,111608,"Rua Infante D. Henrique, Lote 2 - B.º Mário Madeira",1675-122,PONTINHA,Atendimento Policial Permanente,214787220,0,http://www.psp.pt,38.767825,-9.198192,237,Ministério da Administração Interna,2528,PSP
TORRES VEDRAS - LOURES - 74ª Esquadra LX,Esquadra de Polícia,1122,111326,"Rua Manuel César Candeias, n.º 3",2560-652,TORRES VEDRAS,Atendimento Policial Permanente,261330770,0,http://www.psp.pt,39.088865,-9.262473,237,Ministério da Administração Interna,2528,PSP
CANEÇAS - LOURES - 75ª Esquadra LX,Esquadra de Polícia,1123,111610,Rua Virgílio Ferreira,1685-581,CANEÇAS,Atendimento Policial Permanente,219817050 - 219817057,0,http://www.psp.pt,38.808877,-9.227202,237,Ministério da Administração Interna,2528,PSP
SÃO JOÃO DA TALHA - Esquadra - 76ª ESQUADRA LX,Esquadra de Polícia,1124,110728,Rua José Dias Coelho - Bairro do Operário,2695-713,SÃO JOÃO DA TALHA,Atendimento Policial Permanente,219946760 - 219946774,0,http://www.psp.pt,38.818566,-9.095822,237,Ministério da Administração Interna,2528,PSP
SANTO ANTONIO DOS CAVALEIROS - LOURES - 77ª Esquadra LX,Esquadra de Polícia,1125,110730,Rua Padre António Vieira,2660-232,SANTO ANTÓNIO DOS CAVALEIROS,Atendimento Policial Permanente,219896830,0,http://www.psp.pt,38.815444,-9.166797,237,Ministério da Administração Interna,2528,PSP
OEIRAS - Divisão Policial,Divisão de Policia,1126,111014,"Rua de Espargal, n.º 18",2780-012,OEIRAS,Atendimento Policial Permanente,214540230,divoeiras.lisboa@psp.pt,http://www.psp.pt,38.695736,-9.302176,237,Ministério da Administração Interna,2528,PSP
OEIRAS - Esquadra de Trânsito,Esquadra de Trânsito,1127,111014,"Rua Candido dos Reis, s/n",2780-213,OEIRAS,Atendimento Policial Permanente,214430133,0,http://www.psp.pt,38.693715,-9.307930,237,Ministério da Administração Interna,2528,PSP
OEIRAS - Esquadra de Investigação Criminal,Esquadra de Investigação Criminal,1128,111014,"Rua Cândido dos Reis, s/n",2780-213,OEIRAS,Sem Horário de Atendimento,214540356,eicoeiras.lisboa@psp.pt,http://www.psp.pt,38.693608,-9.307367,237,Ministério da Administração Interna,2528,PSP
OEIRAS - Esquadra de Intervenção e Fiscalização,Esquadra de Intervenção e Fiscalização Policial,1129,111014,"Rua de Espargal, n.º 18",2780-012,OEIRAS,Sem Horário de Atendimento,214540230,divoeiras.lisboa@psp.pt,http://www.psp.pt,38.695736,-9.302176,237,Ministério da Administração Interna,2528,PSP
OEIRAS - 80ª Esquadra LX,Esquadra de Polícia,1130,111014,"Rua do Espargal, n.º 18",2780-012,OEIRAS,Atendimento Policial Permanente,214540246,0,http://www.psp.pt,38.695736,-9.302176,237,Ministério da Administração Interna,2528,PSP
MIRAFLORES - OEIRAS - 81ª Esquadra LX,Esquadra de Polícia,1131,111012,"Avenida General Norton de Matos, s/n",1495-148,MIRAFLORES,Atendimento Policial Permanente,214102570 - 214105313,0,http://www.psp.pt,38.711982,-9.225722,237,Ministério da Administração Interna,2528,PSP
PORTO SALVO - OEIRAS - 82ª Esquadra LX,Esquadra de Polícia,1132,111009,Rua António Roberto Batista,2740-016,PORTO SALVO,Atendimento Policial Permanente,214540350 - 214540353,portosalvo.lisboa@psp.pt,http://www.psp.pt,38.719889,-9.298599,237,Ministério da Administração Interna,2528,PSP
CARNAXIDE - OEIRAS - 83ª Esquadra LX,Esquadra de Polícia,1133,111013,"Estrada da Outurela , n.º 160",2790-115,CARNAXIDE,Atendimento Policial Permanente,214173081 - 214186470,0,http://www.psp.pt,38.724769,-9.242864,237,Ministério da Administração Interna,2528,PSP
CAXIAS - LAVEIRAS - OEIRAS - 84ª Esquadra LX,Esquadra de Polícia,1134,111014,"Avenida João de Freitas Branco, n.º 2",2760-073,CAXIAS,Atendimento Policial Permanente,214416296 - 214438804,0,http://www.psp.pt,38.708085,-9.272377,237,Ministério da Administração Interna,2528,PSP
QUEIJAS - OEIRAS - 85ª Esquadra LX,Esquadra de Polícia,1135,111012,Rua Duque da Terceira,2795-875,QUEIJAS,Atendimento Policial Permanente,214186145 - 214160209,queijas.lisboa@psp.pt,http://www.psp.pt,38.720636,-9.263110,237,Ministério da Administração Interna,2528,PSP
SINTRA - Divisão Policial,Divisão de Policia,1136,111108,Avenida Gil Eanes,2635-003,RIO DE MOURO,Sem Horário de Atendimento,219198630,sintra.lisboa@psp.pt,http://www.psp.pt,38.781093,-9.322283,237,Ministério da Administração Interna,2528,PSP
SINTRA - Esquadra de Trânsito,Esquadra de Trânsito,1137,111102,"Rua das Mercês, nrª 56/61",2725-092,MEM MARTINS,Sem Horário de Atendimento,219225240,0,http://www.psp.pt,38.798055,-9.336567,237,Ministério da Administração Interna,2528,PSP
SINTRA - Esquadra de Investigação Criminal,Esquadra de Investigação Criminal,1138,111126,"Av. D. Nuno Álvares Pereira, nº 42",2745-145,CACÉM,Sem Horário de Atendimento,219140078,0,http://www.psp.pt,38.768868,-9.294572,237,Ministério da Administração Interna,2528,PSP
SINTRA - Esquadra de Intervenção e Fiscalização Policial,Esquadra de Intervenção e Fiscalização Policial,1139,111126,"Rua Coronel Melo Antunes, Lote 67",2745-039,MASSAMÁ,Sem Horário de Atendimento,214308910,0,http://www.psp.pt,38.758382,-9.282055,237,Ministério da Administração Interna,2528,PSP
QUELUZ - SINTRA - 62ª Esquadra LX,Esquadra de Polícia,1140,111126,"Rua Adriano Correia de Oliveira, nº 2",2745-055,QUELUZ,Atendimento Policial Permanente,214340220,0,http://www.psp.pt,38.757341,-9.249413,237,Ministério da Administração Interna,2528,PSP
AGUALVA - CACÉM - SINTRA - 66ª Esquadra LX,Esquadra de Polícia,1141,111126,"Av. D. Nuno Álvares Pereira, n. 42 - C",2745-145,AGUALVA-CACÉM,Atendimento Policial Permanente,219128800,0,http://www.psp.pt,38.768868,-9.294572,237,Ministério da Administração Interna,2528,PSP
SÃO MARCOS - SINTRA - 68ª Esquadra LX,Esquadra de Polícia,1142,111124,"Av. do Brasil, Lote-H",2735-674,SÃO MARCOS,Atendimento Policial Permanente,214272100,0,http://www.psp.pt,38.748714,-9.296028,237,Ministério da Administração Interna,2528,PSP
ALGUEIRÃO/MEM MARTINS - SINTRA - 69ª Esquadra LX,Esquadra de Polícia,1143,111102,"Avenida Capitães de Abril, Algueirão",2725-039,MEM MARTINS,Atendimento Policial Permanente,219225240 - 219225247,0,http://www.psp.pt,38.798055,-9.336567,237,Ministério da Administração Interna,2528,PSP
CASAL DE CAMBRA - SINTRA - 86ª Esquadra LX,Esquadra de Polícia,1144,111126,Avenida de Moçambique,2605-535,CASAL DE CAMBRA,Atendimento Policial Permanente,219817120,casaldecambra.lisboa@psp.pt,http://www.psp.pt,38.801277,-9.233318,237,Ministério da Administração Interna,2528,PSP
MIRA-SINTRA - SINTRA - 87ª Esquadra LX,Esquadra de Polícia,1145,111122,"Rua 1º de Maio, Vivenda 444-E - Mira-Sintra",2735-411,MIRA-SINTRA,Atendimento Policial Permanente,219142986,mirasintra.lisboa@psp.pt,http://www.psp.pt,38.786433,-9.304028,237,Ministério da Administração Interna,2528,PSP
MASSAMÁ - SINTRA - 88ª Esquadra LX,Esquadra de Polícia,1146,111126,"Rua Coronel Melo Antunes, Lote 67",2745-039,MASSAMÁ,Atendimento Policial Permanente,214308910,0,http://www.psp.pt,38.758382,-9.282055,237,Ministério da Administração Interna,2528,PSP
RIO DE MOURO - SINTRA - 89ª Esquadra LX,Esquadra de Polícia,1147,111108,Avenida Gil Eanes,2635-003,RIO DE MOURO,Atendimento Policial Permanente,219198630,riodemouro.lisboa@psp.pt,http://www.psp.pt,38.781093,-9.322283,237,Ministério da Administração Interna,2528,PSP
VILA FRANCA DE XIRA - Divisão Policial,Divisão de Policia,1148,111413,Rua do Brejo - Quinta da Formigueira,2615-339,ALVERCA DO RIBATEJO,Sem Horário de Atendimento,219578810,vfxira.lisboa@psp.pt,http://www.psp.pt,38.902720,-9.042312,237,Ministério da Administração Interna,2528,PSP
VILA FRANCA DE XIRA - Esquadra de Trânsito,Esquadra de Trânsito,1149,111413,Rua do Brejo - Quinta da Formigueira,2615-339,ALVERCA DO RIBATEJO,Sem Horário de Atendimento,219578810,vfxira.lisboa@psp.pt,http://www.psp.pt,38.902720,-9.042312,237,Ministério da Administração Interna,2528,PSP
VILA FRANCA DE XIRA - Esqª de Intervenção e Fiscalização Policial,Esquadra de Intervenção e Fiscalização Policial,1150,111415,"Rua Alcino Oliveira e Silva, s/n",2625-196,PÓVOA DE SANTA IRIA,Sem Horário de Atendimento,219540611 - 219540612,vfxira.lisboa@psp.pt,http://www.psp.pt,38.8674,-9.06763333,237,Ministério da Administração Interna,2528,PSP
VILA FRANCA DE XIRA - Esquadra de Investigação Criminal,Esquadra de Investigação Criminal,1151,111413,"Rua Alcino Oliveira e Silva, s/n",2615-339,ALVERCA DO RIBATEJO,Sem Horário de Atendimento,219540610,vfxira.lisboa@psp.pt,http://www.psp.pt,38.8674,-9.06763333,237,Ministério da Administração Interna,2528,PSP
VILA FRANCA DE XIRA - 90ª Esquadra LX,Esquadra de Polícia,1152,111409,"Avenida Pedro Victor, 7",2600-221,VILA FRANCA DE XIRA,Atendimento Policial Permanente,263279070,0,http://www.psp.pt,38.953068,-8.988447,237,Ministério da Administração Interna,2528,PSP
ALVERCA DO RIBATEJO - VILA FRANCA DE XIRA - 91ª Esquadra LX,Esquadra de Polícia,1153,111413,Rua do Brejo - Quinta da Formigueira,2615-339,ALVERCA DO RIBATEJO,Atendimento Policial Permanente,219578810,alverca.lisboa@psp.pt,http://www.psp.pt,38.902720,-9.042312,237,Ministério da Administração Interna,2528,PSP
ALHANDRA - VILA FRANCA DE XIRA - 92ª Esquadra LX,Esquadra de Polícia,1154,111412,"Urbanização Quinta da Fé, Lote 2 - r/c",2600-535,ALHANDRA,Atendimento Policial Permanente,219500070,alhandra.lisboa@psp.pt,http://www.psp.pt,38.930475,-9.012936,237,Ministério da Administração Interna,2528,PSP
PÓVOA DE SANTA IRIA - VILA FRANCA DE XIRA - 93ª Esquadra LX,Esquadra de Polícia,1155,111415,"Rua Alcino Oliveira e Silva, s/n",2625-196,PÓVOA DE SANTA IRIA,Atendimento Policial Permanente,219540600,0,http://www.psp.pt,38.8674,-9.06763333,237,Ministério da Administração Interna,2528,PSP
LISBOA - Divisão de segurança a instações,Segurança a instalações,1156,110726,"Av.ª de Moscavide, nº 88 - Edifício da PSP",1886-502,MOSCAVIDE,Sem Horário de Atendimento,219449331,dsi.lisboa@psp.pt,http://www.psp.pt,38.78046389,-9.1031444,237,Ministério da Administração Interna,2528,PSP
PRESIDÊNCIA DA REPUBLICA - Esquadra de Segurança,Segurança a instalações,1157,110658,"Palácio de Belém, s/n",1349-022,LISBOA,Sem Horário de Atendimento,213637110,0,http://www.psp.pt,38.697884,-9.200622,237,Ministério da Administração Interna,2528,PSP
ASSEMBLEIA DA REPUBLICA - Esquadra de Segurança,Segurança a instalações,1158,110660,"Praça de São Bento, s/n",1249-068,LISBOA,Sem Horário de Atendimento,213917337,0,http://www.psp.pt,38.712444,-9.153674,237,Ministério da Administração Interna,2528,PSP
PRESIDENCIA DO CONSELHO DE MINISTRO - Esquadra de Segurança,Segurança a instalações,1159,110659,"Rua Professor Gomes Teixeira, Edifício da P.C.M.",1350-265,LISBOA,Sem Horário de Atendimento,213927781 - 213927782,0,http://www.psp.pt,38.713094,-9.166431,237,Ministério da Administração Interna,2528,PSP
RESIDENCIA OFICIAL DO 1º MINISTRO - Esquadra de Segurança,Segurança a instalações,1160,110660,"Rua da Imprensa à Estrela, nº 4",1200-888,LISBOA,Sem Horário de Atendimento,213923500,0,http://www.psp.pt,38.712926,-9.155655,237,Ministério da Administração Interna,2528,PSP
CASA DA MOEDA - Esquadra de Segurança,Segurança a instalações,1161,110657,"Avenida João Crisóstomo, Edifício da Imprensa Nacional - Casa da Moeda",1000-042,LISBOA,Sem Horário de Atendimento,217810832,0,http://www.psp.pt,38.736901,-9.142321,237,Ministério da Administração Interna,2528,PSP
SEGURANÇA A INSTALAÇÕES DIPLOMATICAS - 1º Esquadra,Segurança a instalações,1162,110660,"Rua Cintura do Porto de Lisboa, Edifício P.S.P. - Alcântara",1399-014,LISBOA,Sem Horário de Atendimento,213943680,0,http://www.psp.pt,38.70313,-9.16893,237,Ministério da Administração Interna,2528,PSP
SEGURANÇA A INSTALAÇÕES DIPLOMATICAS - 2ª Esquadra,Segurança a instalações,1163,110660,"Rua Cintura do Porto de Lisboa, Edifício P.S.P. - Alcântara",1399-014,LISBOA,Sem Horário de Atendimento,213943680,0,http://www.psp.pt,38.70313,-9.16893,237,Ministério da Administração Interna,2528,PSP
SEGURANÇA A INSTALAÇÕES DIPLOMATICAS - 3ª Esquadra,Segurança a instalações,1164,110726,"Av.ª de Moscavide, nº 88 - Edifício da PSP",1886-502,MOSCAVIDE,Sem Horário de Atendimento,219449331,0,http://www.psp.pt,38.78046389,-9.1031444,237,Ministério da Administração Interna,2528,PSP
LISBOA - Divisão de Investigação Criminal,Divisão de Investigação Criminal,1165,110660,"Rua Cintura do Porto de Lisboa, Edifício P.S.P. - Alcântara",1399-014,LISBOA,Sem Horário de Atendimento,213943600,dic.lisboa@psp.pt,http://www.psp.pt,38.70313,-9.16893,237,Ministério da Administração Interna,2528,PSP
LISBOA - 6ª Esquadra de Investigação Criminal,Esquadra de Investigação Criminal,1166,110660,"Rua Cintura do Porto de Lisboa, Edifício P.S.P.",1399-014,LISBOA,Sem Horário de Atendimento,213943600,6eic.lisboa@psp.pt,http://www.psp.pt,38.70313,-9.16893,237,Ministério da Administração Interna,2528,PSP
LISBOA - 7ª Esquadra de Investigação Criminal,Esquadra de Investigação Criminal,1167,110660,"Rua Cintura do Porto de Lisboa, Edifício P.S.P.",1399-014,LISBOA,Sem Horário de Atendimento,213943600,7eic.lisboa@psp.pt,http://www.psp.pt,38.70313,-9.16893,237,Ministério da Administração Interna,2528,PSP
LISBOA - 8ª Esquadra de Investigação Criminal,Esquadra de Investigação Criminal,1168,110660,"Rua Cintura do Porto de Lisboa, Edifício P.S.P.",1399-014,LISBOA,Sem Horário de Atendimento,213943600,8eic.lisboa@psp.pt,http://www.psp.pt,38.70313,-9.16893,237,Ministério da Administração Interna,2528,PSP
LISBOA - Divisão de Investigação Criminal,Divisão de Investigação Criminal,1169,110660,"Rua Cintura do Porto de Lisboa, Edifício P.S.P. - Alcântara",1399-014,LISBOA,Sem Horário de Atendimento,213943600,diceij.lisboa@psp.pt,http://www.psp.pt,38.70313,-9.16893,237,Ministério da Administração Interna,2528,PSP
LISBOA - Divisão de Segurança Aeroportuaria,Segurança Aeroportuaria,1170,110633,"Aeroporto de Lisboa - Arruamento A, Edifício 11",1700-008,LISBOA,Atendimento Policial Permanente,218444530,dsa.lisboa@psp.pt,http://www.psp.pt,38.771983,-9.128436,237,Ministério da Administração Interna,2528,PSP
LISBOA - Segurança Aeroportuaria - Esquadra de Comando da Divisão,Segurança Aeroportuaria,1171,110633,"Aeroporto de Lisboa - Arruamento A, Edifício 11",1700-008,LISBOA,Atendimento Policial Permanente,218444530,0,http://www.psp.pt,38.771983,-9.128436,237,Ministério da Administração Interna,2528,PSP
LISBOA - Segurança Aeroportuaria - Esquadra de Intervenção e Fiscalização,Segurança Aeroportuaria,1172,110633,"Aeroporto de Lisboa - Arruamento A, Edifício 11",1700-008,LISBOA,Atendimento Policial Permanente,218444530,0,http://www.psp.pt,38.771983,-9.128436,237,Ministério da Administração Interna,2528,PSP
LISBOA - Segurança Aeroportuaria - Esquadra de Segurança Aeroportuaria de Lisboa,Segurança Aeroportuaria,1173,110633,"Aeroporto de Lisboa - Arruamento A, Edifício 11",1700-008,LISBOA,Atendimento Policial Permanente,218444530,0,http://www.psp.pt,38.771983,-9.128436,237,Ministério da Administração Interna,2528,PSP
LISBOA - Segurança Aeroportuaria - Esquadra de Trânsito,Segurança Aeroportuaria,1174,110633,"Aeroporto de Lisboa - Arruamento A, Edifício 11",1700-008,LISBOA,Atendimento Policial Permanente,218444530,0,http://www.psp.pt,38.771983,-9.128436,237,Ministério da Administração Interna,2528,PSP
LISBOA - Segurança Aeroportuaria - Esquadra de Investigação Criminal,Segurança Aeroportuaria,1175,110633,"Aeroporto de Lisboa - Arruamento A, Edifício 11",1700-008,LISBOA,Atendimento Policial Permanente,218444530,0,http://www.psp.pt,38.771983,-9.128436,237,Ministério da Administração Interna,2528,PSP
LISBOA - Divisão de Seguraça a Transportes Publicos,Segurança aos Transportes Publicos,1176,110665,Estação CP Rossio,1200-147,LISBOA,Sem Horário de Atendimento,213430432 - 213215738,dstp.lisboa@psp.pt,http://www.psp.pt,38.714510,-9.141377,237,Ministério da Administração Interna,2528,PSP
MARQUES DE POMBAL ESTAÇÃO - 1ª Esquadra de Segurança a Transportes Publicos,Segurança aos Transportes Publicos,1177,110666,Estação do Metro - Marquês de Pombal,1250-161,LISBOA,Atendimento Policial Permanente,213521040,0,http://www.psp.pt,38.724606,-9.150059,237,Ministério da Administração Interna,2528,PSP
MONTE ABRAÃO - 2ª Esquadra de Segurança a Transportes Publicos,Segurança aos Transportes Publicos,1178,111126,"Praça da Paz (Largo da Estação), Edif. da Estação da CP Monte Abraão",2745-106,MONTE ABRAÃO,Atendimento Policial Permanente,214358484,0,http://www.psp.pt,38.755347,-9.266268,237,Ministério da Administração Interna,2528,PSP
OEIRAS - 3ª Esquadra de Segurança a Transportes Publicos,Segurança aos Transportes Publicos,1179,111014,"Rua de St.º António, Edifício da Estação da CP/Oeiras - Nova Oeiras",2780-164,OEIRAS,Atendimento Policial Permanente,214410510,0,http://www.psp.pt,38.688592,-9.31898,237,Ministério da Administração Interna,2528,PSP
GIL - GARE ORIENTE - 4º Esquadra de Segurança a Transportes Publicos,Segurança aos Transportes Publicos,1180,110662,"Av. D. João II, Estação do Oriente Lt. 01.07.15",1990-233,LISBOA,Atendimento Policial Permanente,218946046,0,http://www.psp.pt,38.768262,-9.099443,237,Ministério da Administração Interna,2528,PSP
CP/METRO - Esquadra de Investigação Criminal,Esquadra de Investigação Criminal,1181,110665,"Estação da CP / Rossio, Edifício do Chefe da Estação",1200-147,LISBOA,Atendimento Policial Permanente,213215743,0,http://www.psp.pt,38.714510,-9.141377,237,Ministério da Administração Interna,2528,PSP
TRIBUNAL DA BOA HORA - Posto de Polícia,Posto de Polícia,1182,110665,Largo da Boa Hora,1249-099,LISBOA,Sem Horário de Atendimento,217654242 - 213462745,0,http://www.psp.pt,38.709641,-9.139264,237,Ministério da Administração Interna,2528,PSP
TRIBUNAL DE INSTRUÇÃO CRIMINAL - Posto de Polícia,Posto de Polícia,1183,110656,"Rua Gomes Freire, nº 18 a 30",1169-006,LISBOA,Sem Horário de Atendimento,213520800,0,http://www.psp.pt,38.723807,-9.139651,237,Ministério da Administração Interna,2528,PSP
TRIBUNAL DE MONSANTO - Esquadra Especial,Esquadra de Polícia,1184,110608,Tribunal de Monsanto,1500-624,LISBOA,Sem Horário de Atendimento,217654242,0,http://www.psp.pt,38.733264,-9.192196,237,Ministério da Administração Interna,2528,PSP
CAMPUS JUSTIÇA - Esquadra Especial,Esquadra de Segurança,1185,110662,Avª Dom João II - Parque das Nações - Piso C1 Edifício F,1990-097,LISBOA,Atendimento Policial Permanente,218364090,0,http://www.psp.pt,38.774721123,-9.096947,237,Ministério da Administração Interna,2528,PSP
PORTALEGRE - Comando Distrital,Comando,1186,121411,"Praça da República, n.º 19",7301-828,PORTALEGRE,Atendimento Policial Permanente,245300620,cpportalegre@psp.pt,http://www.psp.pt,39.289397,-7.429998,237,Ministério da Administração Interna,2528,PSP
PORTALEGRE - Esquadra de Trânsito,Esquadra de Trânsito,1187,121411,"Praça da República, n.º 19",7301-858,PORTALEGRE,Dias úteis: 9h00-12h30 / 14h00-16h00,245300620,ptgesqtr@rnsi.local,http://www.psp.pt,39.289397,-7.429998,237,Ministério da Administração Interna,2528,PSP
PORTALEGRE - Esquadra de Investigação Criminal,Esquadra de Investigação Criminal,1188,121411,"Praça da República, n.º 19",7301-858,PORTALEGRE,Dias úteis: 9h00-12h30 / 14h00-16h00,245300620,ptgeic@rnsi.local,http://www.psp.pt,39.289397,-7.429998,237,Ministério da Administração Interna,2528,PSP
PORTALEGRE - Esquadra de Intervenção e Fiscalização,Esquadra de Intervenção e Fiscalização Policial,1189,121411,"Praça da República, n.º 19",7301-858,PORTALEGRE,Dias úteis: 9h00-12h30 / 14h00-16h00,245300620,0,http://www.psp.pt,39.289397,-7.429998,237,Ministério da Administração Interna,2528,PSP
PORTALEGRE - Esquadra,Esquadra de Polícia,1190,121411,"Praça da República, n.º 19",7301-858,PORTALEGRE,Atendimento Policial Permanente,245300620,ptlecg@rnsi.local,http://www.psp.pt,39.289397,-7.429998,237,Ministério da Administração Interna,2528,PSP
ELVAS - Divisão Policial,Divisão de Policia,1191,120712,"Rua André Gonçalves, n.º 1",7350-139,ELVAS,Atendimento Policial Permanente,268639470,elvas.portalegre@psp.pt,http://www.psp.pt,38.880477,-7.164567,237,Ministério da Administração Interna,2528,PSP
ELVAS - Esquadra de Trânsito,Esquadra de Trânsito,1192,120712,"Rua André Gonçalves, n.º 1",7350-139,ELVAS,Dias úteis: 9h00-12h30 / 14h00-16h00,268639470,ptgesqtr.elvas@rnsi.local,http://www.psp.pt,38.880477,-7.164567,237,Ministério da Administração Interna,2528,PSP
ELVAS - Esquadra de Investigação Criminal,Esquadra de Investigação Criminal,1193,120712,"Rua André Gonçalves, n.º 1",7350-139,ELVAS,Dias úteis: 9h00-12h30 / 14h00-16h00,268639470,ptgeicelvas.@rnsi.local,http://www.psp.pt,38.880477,-7.164567,237,Ministério da Administração Interna,2528,PSP
ELVAS - Esquadra de Intervenção e Fiscalização Policial,Esquadra de Intervenção e Fiscalização Policial,1194,120712,"Rua André Gonçalves, n.º 1",7350-139,ELVAS,Dias úteis: 9h00-12h30 / 14h00-16h00,268639470,0,http://www.psp.pt,38.880477,-7.164567,237,Ministério da Administração Interna,2528,PSP
ELVAS - Esquadra,Esquadra de Polícia,1195,120712,"Rua André Gonçalves, n.º 1",7350-139,ELVAS,Atendimento Policial Permanente,268639470,ptgecgelvas@rnsi.local,http://www.psp.pt,38.880477,-7.164567,237,Ministério da Administração Interna,2528,PSP
PORTO - Comando Metropolitano,Comando,1196,131217,"Largo 1º de Dezembro, s/n",4000-404,PORTO,Dias úteis: 9h00-12h30 / 14h00-16h00 - Atendimento Policial Permanente,222092000 - 965956300,cmporto@psp.pt,http://www.psp.pt,41.142817,-8.609428,237,Ministério da Administração Interna,2528,PSP
PORTO - Esquadra de Turismo,Esquadra de Turismo,1197,131217,"Rua Clube dos Fenianos, nº 11",4000-172,PORTO,Dias úteis: 08h00 - 02h00,222081833,prtetur@psp.pt,http://www.psp.pt,41.150058,-8.611398,237,Ministério da Administração Interna,2528,PSP
RELAÇÕES PÚBLICAS - PORTO,Departamento,1198,131217,"Largo 1º de Dezembro, s/n",4000-404,PORTO,Dias úteis: 9h00-12h30 / 14h00-16h00,222092016,0,http://www.psp.pt,41.142817,-8.609428,237,Ministério da Administração Interna,2528,PSP
PORTO - Núcleo de Armas e Explosivos,Departamento,1199,131202,"Rua do Heroísmo, nº 218",4300-255,PORTO,Dias úteis: 9h00-12h30 / 14h00-16h00,225191129,0,http://www.psp.pt,41.146642,-8.592675,237,Ministério da Administração Interna,2528,PSP
PORTO - Núcleo de Segurança Privada,Departamento,1200,131217,"Praça General Humberto Delgado, nº 287 - 6º andar, Sala 80",4000-288,PORTO,Dias úteis: 9h00-12h30 / 14h00-16h00,223394380 -  2233944387,prtnspriv@psp.pt,http://www.psp.pt,41.1496404,-8.6114116,237,Ministério da Administração Interna,2528,PSP
BRIGADA DE PROTEÇÃO AMBIENTAL - PORTO,Varios,1201,131723,"Rua D. Maria Costa Bastos
(Qta do Guarda Livros) Oliveira do Douro",4430-191,VILA NOVA DE GAIA,Dias úteis: 08h00 - 20h00,227878370,bripa.porto@psp.pt,http://www.psp.pt,41.127230,-8.578844,237,Ministério da Administração Interna,2528,PSP
1ª Divisão Policial - PRT,Divisão de Policia,1202,131202,"Rua António Carneiro, nº 8",4300-003,PORTO,Dias úteis: 9h00-12h30 / 14h00-16h00,225191133,1div.porto@psp.pt,http://www.psp.pt,41.146642,-8.592675,237,Ministério da Administração Interna,2528,PSP
1ª Divisão Policial - PRT - Esquadra de Intervenção e Fiscalização Policial,Esquadra de Intervenção e Fiscalização Policial,1203,131202,"Rua António Carneiro, nº 8",4300-003,PORTO,Sem Horário de Atendimento,225191133,0,http://www.psp.pt,41.146642,-8.592675,237,Ministério da Administração Interna,2528,PSP
BONFIM - 3ª Esquadra PRT,Esquadra de Polícia,1204,131202,"Rua do Heroísmo, nº 218",4300-255,PORTO,Dias úteis: 9h00-12h30 / 14h00-16h00 - Atendimento Policial Permanente,225898930,0,http://www.psp.pt,41.146642,-8.592675,237,Ministério da Administração Interna,2528,PSP
CEDOFEITA - 12ª Esquadra PRT (Instalações Provisórias),Esquadra de Polícia,1205,131217,Rua do Paraíso,4000-377,PORTO,Dias úteis: 9h00-12h30 / 14h00-16h00 - Atendimento Policial Permanente,222073640,0,http://www.psp.pt,41.15758,-8.608398,237,Ministério da Administração Interna,2528,PSP
INFANTE D. HENRIQUE - 9ª Esquadra PRT,Esquadra de Polícia,1206,131217,"Praça Infante D. Henrique, s/n",4050-116,PORTO,Dias úteis: 9h00-12h30 / 14h00-16h00 - Atendimento Policial Permanente,222073370,0,http://www.psp.pt,41.141801,-8.614860,237,Ministério da Administração Interna,2528,PSP
CORONEL PACHECO - PORTO - Esquadra de Intervenção e Fiscalização Policial,Esquadra de Intervenção e Fiscalização Policial,1207,131217,"Praça Coronel Pacheco, n.º 46",4050-453,PORTO,Sem Horário de Atendimento,222071200 - 222080993,0,http://www.psp.pt,41.151325,-8.614797,237,Ministério da Administração Interna,2528,PSP
CORONEL PACHECO - 2ª Divisão Policial - PRT,Divisão de Policia,1208,131217,"Praça Coronel Pacheco, n.º 46",4050-453,PORTO,Dias úteis: 9h00-12h30 / 14h00-16h00,222073280,0,http://www.psp.pt,41.151325,-8.614797,237,Ministério da Administração Interna,2528,PSP
FOZ - (EX. 15ª Esquadra) PRT,Esquadra de Polícia,1209,131216,"Rua Monsenhor Manuel Marinho, n.º 9",4150-482,PORTO,Dias úteis: 9h00-12h30 / 14h00-16h00 - Atendimento Policial Permanente,226153010,0,http://www.psp.pt,41.152226,-8.675266,237,Ministério da Administração Interna,2528,PSP
ESQUADRA DE ALDOAR - PRT,Esquadra de Polícia,1210,131216,"Rua da Vilarinha, n.º 1150",4100-513,PORTO,Dias úteis: 9h00-12h30 / 14h00-16h00 - Atendimento Policial Permanente,226153000,0,http://www.psp.pt,41.17114167,-8.6716389,237,Ministério da Administração Interna,2528,PSP
VISO - 18ª Esquadra PRT,Esquadra de Polícia,1211,131211,"Rua Central do Viso, Torre 1, r/c, Bairro do Viso",4250-206,Porto,Dias úteis: 9h00-12h30 / 14h00-16h00 - Atendimento Policial Permanente,228349340,0,http://www.psp.pt,41.1733541,-8.6215990,237,Ministério da Administração Interna,2528,PSP
3ª Divisão Policial - PRT,Divisão de Policia,1212,131203,"Rua de São Roque da Lameira, s/n",4350-304,PORTO,Dias úteis: 9h00-12h30 / 14h00-16h00,225371437,3div.porto@psp.pt,http://www.psp.pt,41.159489,-8.581443,237,Ministério da Administração Interna,2528,PSP
Esquadra de Intervenção e Fiscalização Policial,Esquadra de Intervenção e Fiscalização Policial,1213,131203,"Rua de São Roque da Lameira, s/n",4350-304,PORTO,Sem Horário de Atendimento,225371437,0,http://www.psp.pt,41.159489,-8.581443,237,Ministério da Administração Interna,2528,PSP
4ª Esquadra PRT,Esquadra de Polícia,1214,131203,"Rua S. Roque da Lameira, s/n",4350-304,PORTO,Dias úteis: 9h00-12h30 / 14h00-16h00 - Atendimento Policial Permanente,225193680,0,http://www.psp.pt,41.159489,-8.581443,237,Ministério da Administração Interna,2528,PSP
5ª Esqº. LAGARTEIRO - PRT,Esquadra de Polícia,1215,131203,"Rua Teófilo Seyrig, nº 32 - Campanhã",4300-536,PORTO,Dias úteis: 9h00-12h30 / 14h00-16h00 - Atendimento Policial Permanente,225314010,0,http://www.psp.pt,41.1502144,-8.5706016,237,Ministério da Administração Interna,2528,PSP
6ª Esquadra - PRT,Esquadra de Polícia,1216,131202,"Rua de Naulila, n.º 206",4200-412,PORTO,Dias úteis: 9h00-12h30 / 14h00-16h00 - Atendimento Policial Permanente,225087760,0,http://www.psp.pt,41.164878,-8.590231,237,Ministério da Administração Interna,2528,PSP
Esq.ª Bom Pastor - (Ex. 8ª Esquadra) PRT,Esquadra de Polícia,1217,131210,"Rua do Vale Formoso, s/n",4200-377,PORTO,Dias úteis: 9h00-12h30 / 14h00-16h00 - Atendimento Policial Permanente,225574900,0,http://www.psp.pt,41.169619,-8.608782,237,Ministério da Administração Interna,2528,PSP
GONDOMAR - Divisão Policial,Divisão de Policia,1218,130408,"Rua da Boavista, S/ N",4435-123,RIO TINTO,Dias úteis: 9h00-12h30 / 14h00-16h00,224853850,divgondomar.porto@psp.pt,http://www.psp.pt,41.175478,-8.555571,237,Ministério da Administração Interna,2528,PSP
GONDOMAR - Esquadra de Trânsito,Esquadra de Trânsito,1219,130408,"Rua da Boavista, S/ N",4435-123,RIO TINTO,Dias úteis: 9h00-12h30 / 14h00-16h00 - Atendimento Policial Permanente,224853850,0,http://www.psp.pt,41.175478,-8.555571,237,Ministério da Administração Interna,2528,PSP
GONDOMAR - Esquadra de Intervenção e Fiscalização Policial,Esquadra de Intervenção e Fiscalização Policial,1220,130408,"Rua da Boavista, S/ N",4435-123,RIO TINTO,Dias úteis: 9h00-12h30 / 14h00-16h00 - Atendimento Policial Permanente,224853850,0,http://www.psp.pt,41.175478,-8.555571,237,Ministério da Administração Interna,2528,PSP
RIO TINTO - GONDOMAR - Esquadra,Esquadra de Polícia,1221,130408,"Rua da Boavista, s/n",4435-123,RIO TINTO,Dias úteis: 9h00-12h30 / 14h00-16h00 - Atendimento Policial Permanente,224853850,riotinto.porto@psp.pt,http://www.psp.pt,41.175478,-8.555571,237,Ministério da Administração Interna,2528,PSP
GONDOMAR - Esquadra,Esquadra de Polícia,1222,130415,"Caminho de Pevidal, S. Cosme, s/n",4420-264,GONDOMAR,Dias úteis: 9h00-12h30 / 14h00-16h00 - Atendimento Policial Permanente,224663370,gondomar.porto@psp.pt,http://www.psp.pt,41.140287,-8.538303,237,Ministério da Administração Interna,2528,PSP
VALBOM - GONDOMAR - Esquadra,Esquadra de Polícia,1223,130415,"Rua Drº. Joaquim M. da Costa, 447",4420-435,VALBOM GDM,Dias úteis: 9h00-12h30 / 14h00-16h00 - Atendimento Policial Permanente,224664000,valbom.porto@psp.pt,http://www.psp.pt,41.141200,-8.556949,237,Ministério da Administração Interna,2528,PSP
VILA NOVA DE GAIA - Divisão Policial,Divisão de Policia,1224,131712,"Rua Maria Costa Bastos, Qtª. do Guarda Livros - Oliveira do Douro",4430-381,VILA NOVA DE GAIA,Dias úteis: 9h00-12h30 / 14h00-16h00,227878370 - 227878375,divvngaia.porto@psp.pt,http://www.psp.pt,41.127230,-8.578844,237,Ministério da Administração Interna,2528,PSP
VILA NOVA DE GAIA - Esquadra de Trânsito,Esquadra de Trânsito,1225,131712,"Rua Maria Costa Bastos, Qtª. do Guarda Livros - Oliveira do Douro",4430-381,VILA NOVA DE GAIA,Dias úteis: 9h00-12h30 / 14h00-16h00 - Atendimento Policial Permanente,227878375,0,http://www.psp.pt,41.127230,-8.578844,237,Ministério da Administração Interna,2528,PSP
VILA NOVA DE GAIA - Esquadra de Intervenção e Fiscalização Policial,Esquadra de Intervenção e Fiscalização Policial,1226,131712,"Rua Maria Costa Bastos, Qtª. do Guarda Livros - Oliveira do Douro",4430-381,VILA NOVA DE GAIA,Sem Horário de Atendimento,227878370 - 227878375,0,http://www.psp.pt,41.127230,-8.578844,237,Ministério da Administração Interna,2528,PSP
OLIVEIRA DO DOURO - VILA NOVA DE GAIA - Esquadra,Esquadra de Polícia,1227,131712,"Rua Maria Costa Bastos, Qtª. do Guarda Livros - Oliveira do Douro",4430-381,VILA NOVA DE GAIA,Dias úteis: 9h00-12h30 / 14h00-16h00 - Atendimento Policial Permanente,227878370,oliveiradodouro.porto@psp.pt,http://www.psp.pt,41.127230,-8.578844,237,Ministério da Administração Interna,2528,PSP
VILA NOVA DE GAIA - 10ª Esquadra PRT,Esquadra de Polícia,1228,131730,"Avenida da República, s/n",4400-191,VILA NOVA DE GAIA,Dias úteis: 9h00-12h30 / 14h00-16h00 - Atendimento Policial Permanente,223774190,gaia.porto@psp.pt,http://www.psp.pt,41.130246,-8.606809,237,Ministério da Administração Interna,2528,PSP
AFURADA - VILA NOVA DE GAIA - Esquadra,Esquadra de Polícia,1229,131730,"Rua da Praia, n.º 73 - Afurada",4400-587,VILA NOVA DE GAIA,Dias úteis: 9h00-12h30 / 14h00-16h00 - Atendimento Policial Permanente,227727300,afurada.porto@psp.pt,http://www.psp.pt,41.1437034,-8.6471460,237,Ministério da Administração Interna,2528,PSP
CANIDELO - VILA NOVA DE GAIA - Esquadra,Esquadra de Polícia,1230,131730,"Rua da Bélgica, 3073",4400-055,VILA NOVA DE GAIA,Dias úteis: 9h00-12h30 / 14h00-16h00 - Atendimento Policial Permanente,227728410,canidelo.porto@psp.pt,http://www.psp.pt,41.127055,-8.636344,237,Ministério da Administração Interna,2528,PSP
VALADARES - VILA NOVA DE GAIA - Esquadra,Esquadra de Polícia,1231,131726,"Rua da Boa Nova, n.º 371",4405-535,VILA NOVA DE GAIA,Dias úteis: 9h00-12h30 / 14h00-16h00 - Atendimento Policial Permanente,227169270,valadares.porto@psp.pt,http://www.psp.pt,41.095231,-8.62018,237,Ministério da Administração Interna,2528,PSP
VILA NOVA DE GAIA - PARQUE DAS CAMÉLIAS,Varios,1232,130601,"Travessa das Camélias, s/n",4430,VILA NOVA DE GAIA,Sem Horário de Atendimento,223753705,0,http://www.psp.pt,41.129564,-8.604897,237,Ministério da Administração Interna,2528,PSP
MATOSINHOS - Divisão Policial,Divisão de Policia,1233,130812,"Rua de Goa, s/n",4454-505,MATOSINHOS,Dias úteis: 9h00-12h30 / 14h00-16h00,229399040 - 967250146,divmatosinhos.porto@psp.pt,http://www.psp.pt,41.184541,-8.681497,237,Ministério da Administração Interna,2528,PSP
MATOSINHOS - Esquadra de Trânsito,Esquadra de Trânsito,1234,130812,"Rua de Goa, s/n",4454-505,MATOSINHOS,Dias úteis: 9h00-12h30 / 14h00-16h00 - Atendimento Policial Permanente,229383427,0,http://www.psp.pt,41.184541,-8.681497,237,Ministério da Administração Interna,2528,PSP
MATOSINHOS - Esquadra de Intervenção e Fiscalização Policial,Esquadra de Intervenção e Fiscalização Policial,1235,130812,"Rua de Goa, s/n",4454-505,MATOSINHOS,Sem Horário de Atendimento,229399040 - 967250146,0,http://www.psp.pt,41.184541,-8.681497,237,Ministério da Administração Interna,2528,PSP
MATOSINHOS - Esquadra,Esquadra de Polícia,1236,130812,"Rua de Goa, s/n",4454-505,MATOSINHOS,Dias úteis: 9h00-12h30 / 14h00-16h00 - Atendimento Policial Permanente,229383427,0,http://www.psp.pt,41.184541,-8.681497,237,Ministério da Administração Interna,2528,PSP
SÃO MAMEDE DE INFESTA - MATOSINHOS - Esquadra,Esquadra de Polícia,1237,130814,"Avenida do Conde, 6202",4465-095,SÃO MAMEDE DE INFESTA,Dias úteis: 9h00-12h30 / 14h00-16h00 - Atendimento Policial Permanente,229059580,smamedeinfesta.porto@psp.pt,http://www.psp.pt,41.193199,-8.610576,237,Ministério da Administração Interna,2528,PSP
CUSTÓIAS - MATOSINHOS - Esquadra,Esquadra de Polícia,1238,130811,"Rua Nova de S. Gens, s/n",4460-781,CUSTÓIAS MTS,Dias úteis: 9h00-12h30 / 14h00-16h00 - Atendimento Policial Permanente,229577940,custoias.porto@psp.pt,http://www.psp.pt,41.199564,-8.644256,237,Ministério da Administração Interna,2528,PSP
MAIA - Divisão Policial,Divisão de Policia,1239,130601,"Avenida do Lidador da Maia, s/n",4425-116,MAIA,Dias úteis: 9h00-12h30 / 14h00-16h00,229785190,divmaia.porto@psp.pt,http://www.psp.pt,41.206350,-8.565258,237,Ministério da Administração Interna,2528,PSP
MAIA - Esquadra de Trânsito,Esquadra de Trânsito,1240,130601,"Avenida do Lidador da Maia, s/n",4425-116,MAIA,Dias úteis: 9h00-12h30 / 14h00-16h00 - Atendimento Policial Permanente,229785190,0,http://www.psp.pt,41.206350,-8.565258,237,Ministério da Administração Interna,2528,PSP
MAIA - Esquadra de Intervenção e Fiscalização Policial,Esquadra de Intervenção e Fiscalização Policial,1241,130601,"Avenida do Lidador da Maia, s/n",4425-116,MAIA,Sem Horário de Atendimento,229785190,0,http://www.psp.pt,41.206350,-8.565258,237,Ministério da Administração Interna,2528,PSP
MAIA - Esquadra,Esquadra de Polícia,1242,130619,"Rua Dr.º Augusto Martins, nº 101",4470-145,MAIA,Dias úteis: 9h00-12h30 / 14h00-16h00 - Atendimento Policial Permanente,229479690,maia.porto@psp.pt,http://www.psp.pt,41.231047,-8.622431,237,Ministério da Administração Interna,2528,PSP
ERMESINDE - Esquadra,Esquadra de Polícia,1243,131503,"Rua da Cancela, 157",4445-369,ERMESINDE,Dias úteis: 9h00-12h30 / 14h00-16h00 - Atendimento Policial Permanente,229774340,ermezinde.porto@psp.pt,http://www.psp.pt,41.221076,-8.557356,237,Ministério da Administração Interna,2528,PSP
VALONGO - Esquadra,Esquadra de Polícia,1244,131505,"Rua Joaquim Marques dos Santos, 176",4440-749,VALONGO,Dias úteis: 9h00-12h30 / 14h00-16h00 - Atendimento Policial Permanente,224219800,valongo.porto@psp.pt,http://www.psp.pt,41.188008,-8.494769,237,Ministério da Administração Interna,2528,PSP
ÁGUAS SANTAS - MAIA - Esquadra,Esquadra de Polícia,1245,130601,"Rua Ferreira de Castro, s/n",4425-083,Águas Santas - MAIA,Dias úteis: 9h00-12h30 / 14h00-16h00 - Atendimento Policial Permanente,229774280,aguassantas.porto@psp.pt,http://www.psp.pt,41.206350,-8.565258,237,Ministério da Administração Interna,2528,PSP
VILA DO CONDE - Divisão Policial,Divisão de Policia,1246,131628,"Largo Dr.º Cunha Reis, s/n",4480-712,VILA DO CONDE,Dias úteis: 9h00-12h30 / 14h00-16h00,252640710 - 968485728,divvconde.porto@psp.pt,http://www.psp.pt,41.351264,-8.743756,237,Ministério da Administração Interna,2528,PSP
VILA DO CONDE - Esquadra de Trânsito,Esquadra de Trânsito,1247,131313,"Praça Marquês de Pombal, s/n",4490-009,PÓVOA DE VARZIM,Dias úteis: 9h00-12h30 / 14h00-16h00 - Atendimento Policial Permanente,252298192,0,http://www.psp.pt,41.381600,-8.762042,237,Ministério da Administração Interna,2528,PSP
VILA DO CONDE - Esquadra de Intervenção e Fiscalização Policial,Esquadra de Intervenção e Fiscalização Policial,1248,131628,"Largo Dr.º Cunha Reis, s/n",4480-712,VILA DO CONDE,Sem Horário de Atendimento,252640710 - 968485728,0,http://www.psp.pt,41.351264,-8.743756,237,Ministério da Administração Interna,2528,PSP
VILA DO CONDE - Esquadra,Esquadra de Polícia,1249,131628,"Largo Dr.º Cunha Reis, s/n",4480-712,VILA DO CONDE,Dias úteis: 9h00-12h30 / 14h00-16h00 - Atendimento Policial Permanente,252640710,viladoconde@psp.pt,http://www.psp.pt,41.351264,-8.743756,237,Ministério da Administração Interna,2528,PSP
POVOA DE VARZIM - Esquadra,Esquadra de Polícia,1250,131313,"Praça Marquês de Pombal, s/n",4490-009,PÓVOA DE VARZIM,Dias úteis: 9h00-12h30 / 14h00-16h00 - Atendimento Policial Permanente,252298190,povoavarzim.porto@psp.pt,http://www.psp.pt,41.381600,-8.762042,237,Ministério da Administração Interna,2528,PSP
SANTO TIRSO - Esquadra,Esquadra de Polícia,1251,131437,"Rua de São Bento da Batalha, s/n",4780-547,SANTO TIRSO,Dias úteis: 9h00-12h30 / 14h00-16h00 - Atendimento Policial Permanente,252860190 - 968485509,santotirso.porto@psp.pt,http://www.psp.pt,41.347940,-8.479873,237,Ministério da Administração Interna,2528,PSP
PORTO - Divisão de Trânsito,Divisão de Trânsito,1252,131217,"Rua da Porta do Sol, Nº 8",4000-393,PORTO,Dias úteis: 9h00-12h30 / 14h00-16h00,223394142,prtdt@psp.pt,http://www.psp.pt,41.143536,-8.608850,237,Ministério da Administração Interna,2528,PSP
PORTO - Esquadra de Trânsito / Secção de Acidentes / Reboques,Esquadra de Trânsito,1253,131217,"Rua Porta do Sol , nº 8",4000-393,Porto,Dias úteis: 9h00-12h30 / 14h00-16h00 - Atendimento Policial Permanente,223394142/46,0,http://www.psp.pt,41.143536,-8.608850,237,Ministério da Administração Interna,2528,PSP
PORTO - Esquadra Intervenção e Fiscalização de Trânsito,Esquadra de Trânsito,1254,131217,"Rua Porta do Sol , nº 8",4000-393,Porto,Sem Horário de Atendimento,223394142,0,http://www.psp.pt,41.143536,-8.608850,237,Ministério da Administração Interna,2528,PSP
PORTO - Esquadra de Sinistralidade Rodoviaria da Divisão de Trânsito,Esquadra de Trânsito,1255,131217,"Rua Porta do Sol , nº 8",4000-393,Porto,Dias úteis: 9h00-12h30 / 14h00-16h00 - Atendimento Policial Permanente,223394142,0,http://www.psp.pt,41.143536,-8.608850,237,Ministério da Administração Interna,2528,PSP
PORTO - 1ª Esquadra de Trânsito,Esquadra de Trânsito,1256,131217,"Rua Porta do Sol , nº 8",4000-393,Porto,Dias úteis: 9h00-12h30 / 14h00-16h00 - Atendimento Policial Permanente,223394142,0,http://www.psp.pt,41.143536,-8.608850,237,Ministério da Administração Interna,2528,PSP
PORTO - 2º Esquadra de Trânsito,Esquadra de Trânsito,1257,131217,"Rua Porta do Sol , nº 8",4000-393,Porto,Dias úteis: 9h00-12h30 / 14h00-16h00 - Atendimento Policial Permanente,223394142,0,http://www.psp.pt,41.143536,-8.608850,237,Ministério da Administração Interna,2528,PSP
PORTO - PARQUE DO VELOSO,Varios,1258,131210,"Travessa do Veloso , s/n",4200-517,Porto,Sem Horário de Atendimento,225400820,0,http://www.psp.pt,41.178512,-8.583258,237,Ministério da Administração Interna,2528,PSP
PORTO - PARQUE DO BOM PASTOR,Varios,1259,131210,"Rua Vale Formoso, s/n",4200-377,PORTO,Sem Horário de Atendimento,225574900,0,http://www.psp.pt,41.169816,-8.613244,237,Ministério da Administração Interna,2528,PSP
PORTO - Divisão de Investigação Criminal,Divisão de Investigação Criminal,1260,131217,"Rua dos Bragas, n.º 61",4050-183,PORTO,Dias úteis: 9h00-12h30 / 14h00-16h00,222046460 - 222046461 - 967480035 - 967480052,dic.cmporto@psp.pt,http://www.psp.pt,41.152742,-8.614494,237,Ministério da Administração Interna,2528,PSP
1ª Esquadra de Investigação Criminal - PRT,Esquadra de Investigação Criminal,1261,131202,"Rua do Heroísmo, nº 218",4300-255,PORTO,Dias úteis: 9h00-12h30 / 14h00-16h00 - Atendimento Policial Permanente,225191124,1eic.porto@psp.pt,http://www.psp.pt,41.146642,-8.592675,237,Ministério da Administração Interna,2528,PSP
3ª Esquadra de Investigação Criminal - PRT,Esquadra de Investigação Criminal,1262,131202,"Rua de Naulila, nº 206",4200-412,PORTO,Dias úteis: 9h00-12h30 / 14h00-16h00 - Atendimento Policial Permanente,222053067 - 967479932,3eic.porto@psp.pt,http://www.psp.pt,41.164878,-8.590231,237,Ministério da Administração Interna,2528,PSP
4ª Esquadra de Investigação Criminal - PRT,Esquadra de Investigação Criminal,1263,130408,Praça da Estação (Edifício da Estação),4435-230,RIO TINTO,Dias úteis: 9h00-12h30 / 14h00-16h00 - Atendimento Policial Permanente,224854300,4eic.porto@psp.pt,http://www.psp.pt,41.184597,-8.557258,237,Ministério da Administração Interna,2528,PSP
5ª Esquadra de Investigação Criminal - PRT,Esquadra de Investigação Criminal,1264,131712,Rua Maria Costa Bastos (Quinta Guarda Livros),4430-381,VILA NOVA DE GAIA,Dias úteis: 9h00-12h30 / 14h00-16h00 - Atendimento Policial Permanente,227878378,5eic.porto@psp.pt,http://www.psp.pt,41.127230,-8.578844,237,Ministério da Administração Interna,2528,PSP
6ª Esquadra de Investigação Criminal - PRT,Esquadra de Investigação Criminal,1265,130812,Rua de Goa,4454-505,MATOSINHOS,Dias úteis: 9h00-12h30 / 14h00-16h00 - Atendimento Policial Permanente,229399040,6eic.porto@psp.pt,http://www.psp.pt,41.184541,-8.681497,237,Ministério da Administração Interna,2528,PSP
7ª Esquadra de Investigação Criminal - PRT,Esquadra de Investigação Criminal,1266,131202,"Rua do Heroísmo, nº 218",4300-255,PORTO,Dias úteis: 9h00-12h30 / 14h00-16h00 - Atendimento Policial Permanente,225191124,7eic.porto@psp.pt,http://www.psp.pt,41.146642,-8.592675,237,Ministério da Administração Interna,2528,PSP
8ª Esquadra de Investigação Criminal - PRT,Esquadra de Investigação Criminal,1267,131628,"Av. Dr. Carlos Pinto Ferreira, nº 523 - Caxinas",4480-665,VILA DO CONDE,Dias úteis: 9h00-12h30 / 14h00-16h00 - Atendimento Policial Permanente,252298400 - 968485349,8eic.porto@psp.pt,http://www.psp.pt,41.364828,-8.759378,237,Ministério da Administração Interna,2528,PSP
PORTO - Divisão de Segurança Aeroportuaria,Segurança Aeroportuaria,1268,130609,Praceta do Aeroporto Francisco Sá Carneiro - Maia,4470-558,MAIA,Dias úteis: 9h00-12h30 / 14h00-16h00,229482693,aeroporto.porto@psp.pt,http://www.psp.pt,41.242254,-8.672333,237,Ministério da Administração Interna,2528,PSP
PORTO - Esquadra de Segurança Aeroportuaria,Segurança Aeroportuaria,1269,130609,Praceta do Aeroporto Francisco Sá Carneiro,4470-558,MAIA,Dias úteis: 9h00-12h30 / 14h00-16h00 - Atendimento Policial Permanente,229482693,0,http://www.psp.pt,41.242254,-8.672333,237,Ministério da Administração Interna,2528,PSP
PORTO - Esquadra de Trânsito do AEROPORTO,Esquadra de Trânsito,1270,130609,Praceta do Aeroporto Francisco Sá Carneiro,4470-558,MAIA,Dias úteis: 9h00-12h30 / 14h00-16h00 - Atendimento Policial Permanente,229482693,0,http://www.psp.pt,41.242254,-8.672333,237,Ministério da Administração Interna,2528,PSP
PORTO - Segurança Aeroportuaria - Esquadra de Intervenção e Fiscalização Policial,Segurança Aeroportuaria,1271,130609,Praceta do Aeroporto Francisco Sá Carneiro,4470-558,MAIA,Sem Horário de Atendimento,229482693,0,http://www.psp.pt,41.242254,-8.672333,237,Ministério da Administração Interna,2528,PSP
VILA NOVA DE GAIA - Esquadra de Segurança Ferroviaria,Segurança aos Transportes Publicos,1272,131730,"Largo 5 de Outubro, 202",4400-098,VILA NOVA DE GAIA,Dias úteis: 07h00  01h00,221050250,0,http://www.psp.pt,41.129314,-8.620597,237,Ministério da Administração Interna,2528,PSP
PORTO - Destacamento do Corpo de Intervenção,Unidade Especial,1273,131203,"Rua Monte Aventino, Quartel da Bela Vista",4350-233,PORTO,Sem Horário de Atendimento,225898911,ci.porto@psp.pt,http://www.psp.pt,41.158928,-8.586681,237,Ministério da Administração Interna,2528,PSP
UNIDADE DE POLICIA TECNICA,Varios,1274,131218,"Rua Júlio Lourenço Pinto, s/n (Bairro do Aleixo)",4150-004,PORTO,Dias úteis: 9h00-12h30 / 14h00-16h00 - Atendimento Policial Permanente,225323520,0,http://www.psp.pt,41.153539,-8.646381,237,Ministério da Administração Interna,2528,PSP
SANTARÉM - Comando Distrital,Comando,1275,141633,"Avenida do Brasil, nº 1",2005-136,SANTARÉM,Dias úteis: 9h00-12h30 / 14h00-16h00,243322022 - 962089952 - 962091175,cdsantarem@psp.pt,http://www.psp.pt,39.234572,-8.686868,237,Ministério da Administração Interna,2528,PSP
SANTARÉM - Divisão Policial,Divisão de Policia,1276,141633,"Avenida do Brasil, nº 1",2005-136,SANTARÉM,Dias úteis: 9h00-12h30 / 14h00-16h00,243322022,div.santarem@psp.pt,http://www.psp.pt,39.234572,-8.686868,237,Ministério da Administração Interna,2528,PSP
SANTARÉM - Esquadra de Trânsito,Esquadra de Trânsito,1277,141633,"Avenida do Brasil, nº 1",2005-136,SANTARÉM,Atendimento Policial Permanente,243322022,etr.santarem@psp.pt,http://www.psp.pt,39.234572,-8.686868,237,Ministério da Administração Interna,2528,PSP
SANTARÉM - Esquadra de Investigação Criminal,Esquadra de Investigação Criminal,1278,141633,"Avenida do Brasil, nº 1",2005-136,SANTARÉM,Sem Horário de Atendimento,243322022,eic.santarem@psp.pt,http://www.psp.pt,39.234572,-8.686868,237,Ministério da Administração Interna,2528,PSP
SANTARÉM - Esquadra de Intervenção e Fiscalização Policial,Esquadra de Intervenção e Fiscalização Policial,1279,141633,"Avenida do Brasil, nº 1",2005-136,SANTARÉM,Sem Horário de Atendimento,243332202,eifp.santarem@psp.pt,http://www.psp.pt,39.234572,-8.686868,237,Ministério da Administração Interna,2528,PSP
SANTARÉM - Esquadra,Esquadra de Polícia,1280,141633,"Avenida do Brasil, nº 1",2005-136,Santarém,Atendimento Policial Permanente,243322022,stresqsede@psp.pt,http://www.psp.pt,39.234572,-8.686868,237,Ministério da Administração Interna,2528,PSP
CARTAXO - Esquadra,Esquadra de Polícia,1281,140609,"Circular Urbana, Sitio dos Sousas",2070-229,CARTAXO,Atendimento Policial Permanente,243702022,stresqctx@psp.pt,http://www.psp.pt,39.163690,-8.798765,237,Ministério da Administração Interna,2528,PSP
TOMAR - Divisão Policial,Divisão de Policia,1282,141821,"Rua Dr Lopo Dias de Sousa, nº 8 - D",2300-483,TOMAR,Dias úteis: 9h00-12h30 / 14h00-16h00,249328040,strsectmr@psp.pt,http://www.psp.pt,39.606903,-8.402878,237,Ministério da Administração Interna,2528,PSP
TOMAR - Esquadra de Trânsito,Esquadra de Trânsito,1283,141821,"Rua Dr. Lopo Dias de Sousa, nº 8 - D",2300-483,TOMAR,Sem Horário de Atendimento,249328040,etr.tomar.santarem@psp.pt,http://www.psp.pt,39.606903,-8.402878,237,Ministério da Administração Interna,2528,PSP
TOMAR - Esquadra de Investigação Criminal,Esquadra de Investigação Criminal,1284,141821,"Rua Dr. Lopo Dias de Sousa, nº 8 - D",2300-483,TOMAR,Sem Horário de Atendimento,249328040,eic.tomar.santarem@psp.pt,http://www.psp.pt,39.606903,-8.402878,237,Ministério da Administração Interna,2528,PSP
TOMAR - Esquadra de Intervenção e Fiscalização Policial,Esquadra de Intervenção e Fiscalização Policial,1285,141821,"Rua Dr. Lopo Dias de Sousa, nº 8 - D",2300-483,TOMAR,Sem Horário de Atendimento,249328040,eifp.tomar.santarem@psp.pt,http://www.psp.pt,39.606903,-8.402878,237,Ministério da Administração Interna,2528,PSP
TOMAR - Esquadra,Esquadra de Polícia,1286,141821,"Rua Dr. Lopo Dias de Sousa, nº 8 - D",2300-483,TOMAR,Atendimento Policial Permanente,249328040,tomar.santarem@psp.pt,http://www.psp.pt,39.606903,-8.402878,237,Ministério da Administração Interna,2528,PSP
ABRANTES - Esquadra,Esquadra de Polícia,1287,140120,Rua Professor Dr. Diogo Freitas do Amaral s/n,2200-126,ABRANTES,Atendimento Policial Permanente,241360970,stresqabt@psp.pt,http://www.psp.pt,39.461713,-8.212693,237,Ministério da Administração Interna,2528,PSP
ENTRONCAMENTO - Esquadra,Esquadra de Polícia,1288,141001,"Rua 5 de Outubro, n.º 52 - 54",2330-094,ENTRONCAMENTO,Atendimento Policial Permanente,249720420,stresqent@psp.pt,http://www.psp.pt,39.464340,-8.467077,237,Ministério da Administração Interna,2528,PSP
TORRES NOVAS - Esquadra,Esquadra de Polícia,1289,141920,"Avenida 8 de Junho, nº 7",2350-724,TORRES NOVAS,Atendimento Policial Permanente,249810020,stresqtnv@psp.pt,http://www.psp.pt,39.477334,-8.536648,237,Ministério da Administração Interna,2528,PSP
OURÉM - Esquadra,Esquadra de Polícia,1290,142115,"Rua Melvin Jones, s/n",2490-548,OURÉM,Atendimento Policial Permanente,249540440,ourem.santarem@psp.pt,http://www.psp.pt,39.6566722,-8.579866,237,Ministério da Administração Interna,2528,PSP
SETUBAL - Comando Distrital,Comando,1291,151210,"Avenida Luisa Tody, nº. 350",2904-502,SETÚBAL,Dias úteis: 9h00-12h30 / 14h00-16h00 - Atendimento Policial Permanente,265522022 - 265531510 - 966185209 - 966185211,cpsetubal@psp.pt,http://www.psp.pt,38.5239055556,-8.89406111111,237,Ministério da Administração Interna,2528,PSP
SETÚBAL - Divisão Policial,Divisão de Policia,1292,151210,"Avenida Luisa Tody, Nº 350",2900-454,SETÚBAL,Dias úteis: 9h00-12h30 / 14h00-16h00,265522022,divstb.setubal@psp.pt,http://www.psp.pt,38.5239055556,-8.89406111111,237,Ministério da Administração Interna,2528,PSP
SETUBAL - Esquadra de Trânsito,Esquadra de Trânsito,1293,151210,"Av.ª General Daniel de Sousa, Nº 26",2900-343,SETÚBAL,Dias úteis: 9h00-12h30 / 14h00-16h00 - Atendimento Policial Permanente,265531538,0,http://www.psp.pt,38.5265694444,-8.89843333333,237,Ministério da Administração Interna,2528,PSP
SETÚBAL - Esquadra de Investigação Criminal,Esquadra de Investigação Criminal,1294,151210,"Rua Oliveira Martins, nºs 6A e 6B",2900-519,SETÚBAL,Dias úteis: 9h00-12h30 / 14h00-16h00 - Atendimento Policial Permanente,265 545 000 - 265 522 022,0,http://www.psp.pt,38.5277416,-8.895594,237,Ministério da Administração Interna,2528,PSP
SETÚBAL - Esquadra de Intervenção e Fiscalização Policial,Esquadra de Intervenção e Fiscalização Policial,1295,151210,"Avenida Luisa Tody, Nº 350",2900-454,SETÚBAL,Dias úteis: 9h00-12h30 / 14h00-16h00 - Atendimento Policial Permanente,265522022,divstb.setubal@psp.pt,http://www.psp.pt,38.5239055556,-8.89406111111,237,Ministério da Administração Interna,2528,PSP
SETÚBAL - 1ª Esquadra,Esquadra de Polícia,1296,151210,"Avenida Luisa Tody, 352",2900-454,SETÚBAL,Dias úteis: 9h00-12h30 / 14h00-16h00 - Atendimento Policial Permanente,265535231,stb1esq@psp.pt,http://www.psp.pt,38.5236277778,-8.89454166667,237,Ministério da Administração Interna,2528,PSP
BELA VISTA - SETÚBAL - 2ª Esquadra,Esquadra de Polícia,1297,151205,"Av.ª da Bela Vista, n.º 7",2910-421,SETÚBAL,Dias úteis: 9h00-12h30 / 14h00-16h00 - Atendimento Policial Permanente,265741593,stb2esq@psp.pt,http://www.psp.pt,38.5229472222,-8.86960833333,237,Ministério da Administração Interna,2528,PSP
ALMADA - Divisão Policial,Divisão de Policia,1298,150312,"Rua Direita do Pragal, Nº 1 - Pragal",2804-532,ALMADA,Dias úteis: 9h00-12h30 / 14h00-16h00 - Atendimento Policial Permanente,212721400 - 212746558 - Linha Azul 800 205 146,divalmada.setubal@psp.pt,http://www.psp.pt,38.6742222222,-9.168325,237,Ministério da Administração Interna,2528,PSP
ALMADA - Esquadra de Trânsito,Esquadra de Trânsito,1299,150312,"Rua Direita do Pragal, nº 1",2804-532,ALMADA,Dias úteis: 9h00-12h30 / 14h00-16h00,212721400,Stbesqtralm @psp.pt,http://www.psp.pt,38.6742222222,-9.168325,237,Ministério da Administração Interna,2528,PSP
ALMADA - Esquadra de Investigação Criminal,Esquadra de Investigação Criminal,1300,150312,"Rua Direita do Pragal, nº 1",2804-532,ALMADA,Dias úteis: 9h00-12h30 / 14h00-16h00,212721400,stbeicalmada@psp.pt,http://www.psp.pt,38.6742222222,-9.168325,237,Ministério da Administração Interna,2528,PSP
ALMADA - Esquadra de Intervenção e Fiscalização Policial,Esquadra de Intervenção e Fiscalização Policial,1301,150312,"Rua Direita do Pragal, nº 1",2804-532,ALMADA,Sem Horário de Atendimento,212721400,stbeifpalmada@psp.pt,http://www.psp.pt,38.6742222222,-9.168325,237,Ministério da Administração Interna,2528,PSP
PRAGAL - ALMADA - Esquadra,Esquadra de Polícia,1302,150312,"Rua Direita do Pragal, Nº 1",2804-532,ALMADA,Atendimento Policial Permanente,212721411,pragal.setubal@psp.pt,http://www.psp.pt,38.6742222222,-9.168325,237,Ministério da Administração Interna,2528,PSP
LARANJEIRO - ALMADA - Esquadra,Esquadra de Polícia,1303,150315,"Rua dos Álamos, n.º 20",2810-144,ALMADA,Atendimento Policial Permanente,212558530,laranjeiro.setubal@psp.pt,http://www.psp.pt,38.650346348,-9.15155624466,237,Ministério da Administração Interna,2528,PSP
BARREIRO - Divisão Policial,Divisão de Policia,1304,150410,"Rua 44, nº 2-A - Parque Industrial da Quimiparque",2830-904,BARREIRO,Dias úteis: 9h00-12h30 / 14h00-16h00,212067800 - 212069550 - 212069560,divbarreiro.setubal@psp.pt,http://www.psp.pt,38.6645335039,-9.06800110559,237,Ministério da Administração Interna,2528,PSP
BARREIRO - Esquadra de Trânsito,Esquadra de Trânsito,1305,150410,"Rua 44, nº 2-A  Parque Industrial da Quimiparque",2831-904,BARREIRO,Dias úteis: 9h00-12h30 / 14h00-16h00 - Atendimento Policial Permanente,212067800 - 212069550 - 212069560,stbesqtrbar@psp.pt,http://www.psp.pt,38.6645335039,-9.06800110559,237,Ministério da Administração Interna,2528,PSP
BARREIRO - Esquadra de Investigação Criminal,Esquadra de Investigação Criminal,1306,150410,"Rua 44, nº 2-A  Parque Industrial da Quimiparque",2831-904,BARREIRO,Dias úteis: 9h00-12h30 / 14h00-16h00 - Atendimento Policial Permanente,212067800 - 212069550 - 212069560,eicbarreiro.setubal@psp.pt,http://www.psp.pt,38.6645335039,-9.06800110559,237,Ministério da Administração Interna,2528,PSP
BARREIRO - Esquadra de Intervenção e Fiscalização Policial,Esquadra de Intervenção e Fiscalização Policial,1307,150409,"Rua D. João de Castro, 72",2830-186,BARREIRO,Dias úteis: 9h00-12h30 / 14h00-16h00 - Atendimento Policial Permanente,212147020,stbeifpbarreiro@psp.pt,http://www.psp.pt,38.6459388361,-9.05863978425,237,Ministério da Administração Interna,2528,PSP
BARREIRO - 5ª Esquadra,Esquadra de Polícia,1308,150410,"Rua 44, nº 2-A  Parque Industrial da Quimiparque",2830-904,BARREIRO,Dias úteis: 9h00-12h30 / 14h00-16h00 - Atendimento Policial Permanente,212067800 - 212069550 - 212069560,barreiro.setubal@psp.pt,http://www.psp.pt,38.6645335039,-9.06800110559,237,Ministério da Administração Interna,2528,PSP
QUINTA DA LOMBA - BARREIRO - Esquadra,Esquadra de Polícia,1309,150409,"Rua D. João de Castro, 72",2830-186,BARREIRO,Dias úteis: 9h00-12h30 / 14h00-16h00 - Atendimento Policial Permanente,212147020,stbpaqdl@psp.pt,http://www.psp.pt,38.6459388361,-9.05863978425,237,Ministério da Administração Interna,2528,PSP
MONTIJO - Esquadra,Esquadra de Polícia,1310,150710,"Rua Joaquim de Almeida, 70",2870-340,MONTIJO,Dias úteis: 9h00-12h30 / 14h00-16h00 - Atendimento Policial Permanente,212310144,montijo.setubal@psp.pt,http://www.psp.pt,38.7062840782,-8.97005155702,237,Ministério da Administração Interna,2528,PSP
BAIXA DA BANHEIRA - Esquadra,Esquadra de Polícia,1311,150607,Largo da GNR,2835-025,BAIXA DA BANHEIRA,Dias úteis: 9h00-12h30 / 14h00-16h00 - Atendimento Policial Permanente,212029010,baixadabanheira.setubal@psp.pt,http://www.psp.pt,38.6569652856,-9.0438510548,237,Ministério da Administração Interna,2528,PSP
SEIXAL - Divisão Policial,Divisão de Policia,1312,151007,"Rua Aurélia de Sousa, n.º 16 - Torre da Marinha",2840-422,SEIXAL,Dias úteis: 9h00-12h30 / 14h00-16h00,212276500,divseixal.setubal@psp.pt,http://www.psp.pt,38.6144660166,-9.1030415843,237,Ministério da Administração Interna,2528,PSP
SEIXAL - Esquadra de Trânsito,Esquadra de Trânsito,1313,151007,"Rua Aurélia de Sousa, n.º 16 - Torre da Marinha",2840-422,SEIXAL,Dias úteis: 9h00-12h30 / 14h00-16h00,212276500,stbesqtrsxl@psp.pt,http://www.psp.pt,38.6144660166,-9.1030415843,237,Ministério da Administração Interna,2528,PSP
SEIXAL - Esquadra de Investigação Criminal,Esquadra de Investigação Criminal,1314,151007,"Rua Aurélia de Sousa, n.º 16 - Torre da Marinha",2840-422,SEIXAL,Dias úteis: 9h00-12h30 / 14h00-16h00,212276500,divseixal.setubal@psp.pt,http://www.psp.pt,38.6144660166,-9.1030415843,237,Ministério da Administração Interna,2528,PSP
SEIXAL - Esquadra de Intervenção e Fiscalização Policial,Esquadra de Intervenção e Fiscalização Policial,1315,151007,"Rua Aurélia de Sousa, n.º 16 - Torre da Marinha",2840-422,SEIXAL,Dias úteis: 9h00-12h30 / 14h00-16h00,212276500,divseixal.setubal@psp.pt,http://www.psp.pt,38.6144660166,-9.1030415843,237,Ministério da Administração Interna,2528,PSP
SEIXAL - Esquadra,Esquadra de Polícia,1316,151007,"Largo dos Restauradores, 3",2840-482,SEIXAL,Atendimento Policial Permanente,212273230,seixal.setubal@psp.pt,http://www.psp.pt,38.6439666667,-9.10087777778,237,Ministério da Administração Interna,2528,PSP
CORROIOS - SEIXAL - Esquadra,Esquadra de Polícia,1317,151005,"Avenida Rui Grácio, n.º 43 - Santa Marta de Corroios",2855-711,CORROIOS,Atendimento Policial Permanente,212548410,corroios.setubal@psp.pt,http://www.psp.pt,38.6287111111,-9.14913333333,237,Ministério da Administração Interna,2528,PSP
CRUZ DE PAU - SEIXAL - Esquadra,Esquadra de Polícia,1318,151002,"Rua de Binta, s/n",2845-068,CRUZ DE PAU,Atendimento Policial Permanente,212260350,cruzdepau.setubal@psp.pt,http://www.psp.pt,38.6249833333,-9.12433333333,237,Ministério da Administração Interna,2528,PSP
TORRE DA MARINHA - SEIXAL - Esquadra,Esquadra de Polícia,1319,151007,"Praceta Madalena da Glória, s/n",2840-413,TORRE DA MARINHA,Atendimento Policial Permanente,212219350,divseixal.setubal@psp.pt,http://www.psp.pt,38.6145633363,-9.10241204693,237,Ministério da Administração Interna,2528,PSP
VIANA DO CASTELO - Comando Distrital,Comando,1320,160948,"Rua de Aveiro, s/n",4901-875,VIANA DO CASTELO,Dias úteis: 9h00-12h30 / 14h00-16h00 - Atendimento Policial Permanente,258809880 - 258822022,cpvcastelo@psp.pt,http://www.psp.pt,41.696933,-8.825465,237,Ministério da Administração Interna,2528,PSP
VIANA DO CASTELO - Esquadra de Trânsito,Esquadra de Trânsito,1321,160948,"Rua de Aveiro, s/n",4901-875,VIANA DO CASTELO,Sem Horário de Atendimento,258809897,cpvcastelo@psp.pt,http://www.psp.pt,41.696933,-8.825465,237,Ministério da Administração Interna,2528,PSP
VIANA DO CASTELO - Esquadra de Investigação Criminal,Esquadra de Investigação Criminal,1322,160948,"Rua de Aveiro, s/n",4904-875,VIANA DO CASTELO,Dias úteis: 9h00-12h30 / 14h00-16h00,258809894,cpvcastelo@psp.pt,http://www.psp.pt,41.696933,-8.825465,237,Ministério da Administração Interna,2528,PSP
VIANA DO CASTELO - Esquadra de Intervenção e Fiscalização Policial,Esquadra de Intervenção e Fiscalização Policial,1323,160948,"Rua de Aveiro, s/n",4904-875,VIANA DO CASTELO,Dias úteis: 9h00-12h30 / 14h00-16h00,258809880 - 258822022,cpvcastelo@psp.pt,http://www.psp.pt,41.696933,-8.825465,237,Ministério da Administração Interna,2528,PSP
VIANA DO CASTELO - Esquadra,Esquadra de Polícia,1324,160948,"Rua de Aveiro, s/n",4901-875,VIANA DO CASTELO,Atendimento Policial Permanente,258809880 - 258822022,vctesqsede@psp.pt,http://www.psp.pt,41.696933,-8.825465,237,Ministério da Administração Interna,2528,PSP
PONTE DE LIMA - Esquadra,Esquadra de Polícia,1325,160752,"Rua Dr. Luís da Cunha Nogueira, s/n",4990-113,PONTE DE LIMA,Atendimento Policial Permanente,258941113 - 258900380,pontedelima.vcastelo@psp.pt,http://www.psp.pt,41.767775,-8.580751,237,Ministério da Administração Interna,2528,PSP
VILA REAL - Comando Distrital,Comando,1326,171438,"Estrada Nacional n.º 2, s/n - Almodena, Apartado 113",5000-523,VILA REAL,Dias úteis: 9h00-12h30 / 14h00-16h00,259330240,cpvreal@psp.pt,http://www.psp.pt,41.295321,-7.755441,237,Ministério da Administração Interna,2528,PSP
VILA REAL - Esquadra de Trânsito,Esquadra de Trânsito,1327,171438,"Estrada Nacional n.º 2, s/n - Almodena, Apartado 113",5000-523,VILA REAL,Dias úteis: 9h00-12h30 / 14h00-16h00 - Atendimento Policial Permanente,259330240,cpvreal@psp.pt,http://www.psp.pt,41.295321,-7.755441,237,Ministério da Administração Interna,2528,PSP
VILA REAL - Esquadra de Investigação Criminal,Esquadra de Investigação Criminal,1328,171438,"Largo Conde de Amarante, s/n",5000-523,VILA REAL,Dias úteis: 9h00-12h30 / 14h00-16h00,259330240,cpvreal@psp.pt,http://www.psp.pt,41.295321,-7.755441,237,Ministério da Administração Interna,2528,PSP
VILA REAL - Esquadra de Intervenção e Fiscalização Policial,Esquadra de Intervenção e Fiscalização Policial,1329,171438,"Estrada Nacional n.º 2, s/n - Almodena, Apartado 113",5000-523,VILA REAL,Dias úteis: 9h00-12h30 / 14h00-16h00,259330240,cpvreal@psp.pt,http://www.psp.pt,41.295321,-7.755441,237,Ministério da Administração Interna,2528,PSP
VILA REAL - Esquadra,Esquadra de Polícia,1330,171438,"Largo Conde de Amarante, s/n",5000-529,VILA REAL,Dias úteis: 9h00-12h30 / 14h00-16h00 - Atendimento Policial Permanente,259330240,vrlesqsede@psp.pt,http://www.psp.pt,41.295591,-7.747003,237,Ministério da Administração Interna,2528,PSP
CHAVES - Divisão Policial,Divisão de Policia,1331,170350,"Avenida Xavier Teixeira, s/n",5400-569,CHAVES,Dias úteis: 9h00-12h30 / 14h00-16h00,276323125,vrlsecchv@psp.pt,http://www.psp.pt,41.743284,-7.472583,237,Ministério da Administração Interna,2528,PSP
CHAVES - Esquadra de Trânsito,Esquadra de Trânsito,1332,170350,"Avenida Xavier Teixeira, s/n",5400-569,CHAVES,Dias úteis: 9h00-12h30 / 14h00-16h00,276323125,vrlsecchv@psp.pt,http://www.psp.pt,41.743284,-7.472583,237,Ministério da Administração Interna,2528,PSP
CHAVES - Esquadra de Investigação Criminal,Esquadra de Investigação Criminal,1333,170350,"Avenida Xavier Teixeira, s/n",5400-569,CHAVES,Dias úteis: 9h00-12h30 / 14h00-16h00,276323125,vrlsecchv@psp.pt,http://www.psp.pt,41.743284,-7.472583,237,Ministério da Administração Interna,2528,PSP
CHAVES - Esquadra de Intervenção e Fiscalização Policial,Esquadra de Intervenção e Fiscalização Policial,1334,170350,"Avenida Xavier Teixeira, s/n",5400-569,CHAVES,Dias úteis: 9h00-12h30 / 14h00-16h00,276323125,vrlsecchv@psp.pt,http://www.psp.pt,41.743284,-7.472583,237,Ministério da Administração Interna,2528,PSP
CHAVES - Esquadra,Esquadra de Polícia,1335,170350,"Avenida Xavier Teixeira, s/n",5400-569,CHAVES,Dias úteis: 9h00-12h30 / 14h00-16h00 - Atendimento Policial Permanente,276323125,vrlsecchv@psp.pt,http://www.psp.pt,41.743284,-7.472583,237,Ministério da Administração Interna,2528,PSP
VISEU - Comando Distrital,Comando,1336,182341,Rua D. António Alves Martins,3504-506,VISEU,Dias úteis: 9h00-12h30 / 14h00-16h00,232480380 - 968078927 - 968078702,cpviseu@psp.pt,http://www.psp.pt,40.655818,-7.911251,237,Ministério da Administração Interna,2528,PSP
VISEU - Esquadra de Trânsito,Esquadra de Trânsito,1337,182341,Rua D. António Alves Martins,3504-506,VISEU,Dias úteis: 9h00-12h30 / 14h00-16h00,232480380 - 232480383,visesqtr@psp.pt,http://www.psp.pt,40.655818,-7.911251,237,Ministério da Administração Interna,2528,PSP
VISEU - Esquadra de Investigação Criminal,Esquadra de Investigação Criminal,1338,182341,Rua D. António Alves Martins,3504-506,VISEU,Dias úteis: 9h00-12h30 / 14h00-16h00,232480380 - 232480384,eic.viseu@psp.pt,http://www.psp.pt,40.655818,-7.911251,237,Ministério da Administração Interna,2528,PSP
VISEU - Esquadra de Intervenção e Fiscalização Policial,Esquadra de Intervenção e Fiscalização Policial,1339,182341,Rua D. António Alves Martins,3504-506,VISEU,Dias úteis: 9h00-12h30 / 14h00-16h00,232480380,viseifp@rnsi.local,http://www.psp.pt,40.655818,-7.911251,237,Ministério da Administração Interna,2528,PSP
VISEU - Esquadra,Esquadra de Polícia,1340,182341,Rua D. António Alves Martins,3504-506,VISEU,Atendimento Policial Permanente,232480382,visesqsede@psp.pt,http://www.psp.pt,40.655818,-7.911251,237,Ministério da Administração Interna,2528,PSP
LAMEGO - Divisão Policial,Divisão de Policia,1341,180525,Avenida Dr.º António Osório da Mota,5100-062,LAMEGO,Dias úteis: 9h00-12h30 / 14h00-16h00,254656739 - 254612022,lamego.viseu@psp.pt,http://www.psp.pt,41.104377,-7.810228,237,Ministério da Administração Interna,2528,PSP
LAMEGO - Esquadra de Trânsito,Esquadra de Trânsito,1342,180525,Avenida Dr.º António Osório da Mota,5100-062,LAMEGO,Dias úteis: 9h00-12h30 / 14h00-16h00,254656739 - 254612022,visesqtrlmg@psp.pt,http://www.psp.pt,41.104377,-7.810228,237,Ministério da Administração Interna,2528,PSP
LAMEGO - Esquadra de Investigação Criminal,Esquadra de Investigação Criminal,1343,180525,Avenida Dr.º António Osório da Mota,5100-062,LAMEGO,Dias úteis: 9h00-12h30 / 14h00-16h00,254656739 - 254612022,eic.lamego.viseu@psp.pt,http://www.psp.pt,41.104377,-7.810228,237,Ministério da Administração Interna,2528,PSP
LAMEGO - Esquadra de Intervenção e Fiscalização Policial,Esquadra de Intervenção e Fiscalização Policial,1344,180525,Avenida Dr.º António Osório da Mota,5100-062,LAMEGO,Dias úteis: 9h00-12h30 / 14h00-16h00,254656739 - 254612022,Não Tem,http://www.psp.pt,41.104377,-7.810228,237,Ministério da Administração Interna,2528,PSP
LAMEGO - Esquadra,Esquadra de Polícia,1345,180525,Avenida Dr.º António Osório da Mota,5100-062,LAMEGO,Atendimento Policial Permanente,254656739 - 254612022,vislmg@psp.pt,http://www.psp.pt,41.104377,-7.810228,237,Ministério da Administração Interna,2528,PSP
MADEIRA - Comando Regional,Comando,1346,310304,"Rua da Infância, n.º 28 a 32",9060-131,FUNCHAL,Dias úteis: 9h00-12h30 / 14h00-16h00,291208400 - 961356321 - 961356322,crmadeira@psp.pt,http://www.psp.pt,32.650283,-16.902369,237,Ministério da Administração Interna,2528,PSP
FUNCHAL - Divisão Policial,Divisão de Policia,1347,310304,"Rua da Infância, n.º 28 a 32",9060-131,FUNCHAL,Dias úteis: 9h00-12h30 / 14h00-16h00,291208475,funchal.madeira@psp.pt,http://www.psp.pt,32.650283,-16.902369,237,Ministério da Administração Interna,2528,PSP
FUNCHAL - Esquadra de Trânsito,Esquadra de Trânsito,1348,310304,"Rua da Infância, n.º 28 a 32",9060-131,FUNCHAL,Dias úteis: 9h00-12h30 / 14h00-16h00 - Atendimento Policial Permanente,291208430,maddt@rnsi.local,http://www.psp.pt,32.650283,-16.902369,237,Ministério da Administração Interna,2528,PSP
FUNCHAL - Esquadra de Investigação Criminal,Esquadra de Investigação Criminal,1349,310304,"Rua da Infância, n.º 28 a 32",9060-131,FUNCHAL,Dias úteis: 9h00-12h30 / 14h00-16h00,291208458,mad2eic@rnsi.local,http://www.psp.pt,32.650283,-16.902369,237,Ministério da Administração Interna,2528,PSP
FUNCHAL - Esquadra de Intervenção e Fiscalização Policial,Esquadra de Intervenção e Fiscalização Policial,1350,310304,"Rua da Infância, n.º 28 a 32",9060-131,FUNCHAL,Dias úteis: 9h00-12h30 / 14h00-16h00,291208430,madeifp@rnsi.local,http://www.psp.pt,32.650283,-16.902369,237,Ministério da Administração Interna,2528,PSP
FUNCHAL - Esquadra,Esquadra de Polícia,1351,310304,"Rua da Infância, n.º 28 a 32",9060-131,FUNCHAL,Dias úteis: 9h00-12h30 / 14h00-16h00 - Atendimento Policial Permanente,291208429,madesqfunchal@rnsi.local,http://www.psp.pt,32.650283,-16.902369,237,Ministério da Administração Interna,2528,PSP
CAMARA DE LOBOS - Divisão Policial,Divisão de Policia,1352,310201,Rua Padre Pita Ferreira s/n,9300-117,CÂMARA DE LOBOS,Dias úteis: 9h00-12h30 / 14h00-16h00,291911040,camlobos.madeira@psp.pt,http://www.psp.pt,32.648522,-16.970218,237,Ministério da Administração Interna,2528,PSP
CÂMARA DE LOBOS - Esquadra de Trânsito,Esquadra de Trânsito,1353,310201,Rua Padre Pita Ferreira s/n,9300-117,CÂMARA DE LOBOS,Dias úteis: 9h00-12h30 / 14h00-16h00,291911040,etrcamlobos.madeira@psp.pt,http://www.psp.pt,32.648522,-16.970218,237,Ministério da Administração Interna,2528,PSP
CÂMARA DE LOBOS - Esquadra de Investigação Criminal,Esquadra de Investigação Criminal,1354,310201,Rua Padre Pita Ferreira s/n,9300-117,CÂMARA DE LOBOS,Sem Horário de Atendimento,291911040,madbicclobos@rnsi.local,http://www.psp.pt,32.648522,-16.970218,237,Ministério da Administração Interna,2528,PSP
CÂMARA DE LOBOS - Esquadra,Esquadra de Polícia,1355,310201,Rua Padre Pita Ferreira s/n,9300-117,CÂMARA DE LOBOS,Dias úteis: 9h00-12h30 / 14h00-16h00 - Atendimento Policial Permanente,291911040,madesqcamlobos@rnsi.local,http://www.psp.pt,32.648522,-16.970218,237,Ministério da Administração Interna,2528,PSP
RIBEIRA BRAVA - Esquadra,Esquadra de Polícia,1356,310702,Rua Comendador Agostinho Sousa Macedo,9350-203,RIBEIRA BRAVA,Dias úteis: 9h00-12h30 / 14h00-16h00 - Atendimento Policial Permanente,291952159 - 291957430,madesqrbrava@rnsi.local,http://www.psp.pt,32.674223,-17.063822,237,Ministério da Administração Interna,2528,PSP
PONTA DO SOL - Esquadra,Esquadra de Polícia,1357,310503,Rua Padre Leão Henriques s/n,9360-216,PONTA DO SOL,Dias úteis: 9h00-12h30 / 14h00-16h00 - Atendimento Policial Permanente,291972223 - 968632412,madesqpsol@rnsi.local,http://www.psp.pt,32.680179,-17.105461,237,Ministério da Administração Interna,2528,PSP
CALHETA - Esquadra,Esquadra de Polícia,1358,310102,Avenida D. Manuel I n.º 44,9370-135,CALHETA (MADEIRA),Dias úteis: 9h00-12h30 / 14h00-16h00 - Atendimento Policial Permanente,291822422,madesqcalheta@rnsi.local,http://www.psp.pt,32.721863,-17.177837,237,Ministério da Administração Interna,2528,PSP
SÃO VICENTE - Esquadra,Esquadra de Polícia,1359,311003,Rua Antonio Jardim de Oliveira,9240-225,SÃO VICENTE,Dias úteis: 9h00-12h30 / 14h00-16h00 - Atendimento Policial Permanente,291840170,madesqsvicente@rnsi.local,http://www.psp.pt,32.803770,-17.046307,237,Ministério da Administração Interna,2528,PSP
PORTO MONIZ - Esquadra,Esquadra de Polícia,1360,310602,"Estrada Regional n.º 101, n.º1 - Vila do Porto Moniz",9270-095,PORTO MONIZ,Dias úteis: 9h00-12h30 / 14h00-16h00 - Atendimento Policial Permanente,291853361,madesqpmoniz@rnsi.local,http://www.psp.pt,32.865634,-17.167178,237,Ministério da Administração Interna,2528,PSP
MACHICO - Divisão Policial,Divisão de Policia,1361,310805,"Rua Das Forças de Segurança, Edificio das Forças de Segurança",9100-105,SANTA-CRUZ,Dias úteis: 9h00-12h30 / 14h00-16h00,291520870,machico.madeira@rnsi.local,http://www.psp.pt,32.720369,-16.766011,237,Ministério da Administração Interna,2528,PSP
MACHICO - Esquadra de Investigação Criminal,Esquadra de Investigação Criminal,1362,310403,"Rua Banda D`Além, nº 76 - 76A",9200-108,MACHICO,Dias úteis: 9h00-12h30 / 14h00-16h00,291965574,madbicmachico@rnsi.local,http://www.psp.pt,32.720369,-16.766011,237,Ministério da Administração Interna,2528,PSP
MACHICO - Esquadra,Esquadra de Polícia,1363,310403,"Rua Banda D`Além, nº 74 - 79",9200-108,MACHICO,Dias úteis: 9h00-12h30 / 14h00-16h00 - Atendimento Policial Permanente,291965574,madesqmachico@rnsi.local,http://www.psp.pt,32.720369,-16.766011,237,Ministério da Administração Interna,2528,PSP
SANTA CRUZ - Esquadra,Esquadra de Polícia,1364,310805,"Rua do Ribeirinho, s/n",9100-162,SANTA CRUZ,Dias úteis: 9h00-12h30 / 14h00-16h00 - Atendimento Policial Permanente,291524355,madesqscruz@rnsi.local,http://www.psp.pt,32.688744,-16.790462,237,Ministério da Administração Interna,2528,PSP
SANTANA - Esquadra,Esquadra de Polícia,1365,310903,"Rua da Achada do Pampilhar, nº 12- a",9230-083,SANTANA,Dias úteis: 9h00-12h30 / 14h00-16h00 - Atendimento Policial Permanente,291572403,madesqsantana@rnsi.local,http://www.psp.pt,32.807463,-16.881239,237,Ministério da Administração Interna,2528,PSP
PORTO SANTO - Esquadra,Esquadra de Polícia,1366,320101,Estrada António Tabuada - Matas,9400-035,PORTO SANTO,Dias úteis: 9h00-12h30 / 14h00-16h00 - Atendimento Policial Permanente,291980010,madesqpsanto@rnsi.local,http://www.psp.pt,33.059703,-16.338537,237,Ministério da Administração Interna,2528,PSP
MADEIRA - Divisão de Segurança Aeroportuaria,Segurança Aeroportuaria,1367,310805,"Rua Das Forças de Segurança, Edificio das forças de segurança",9100-105,SANTA CRUZ,Dias úteis: 9h00-12h30 / 14h00-16h00,291520889,aeroporto.madeira@psp.pt,http://www.psp.pt,32.691868,-16.777158,237,Ministério da Administração Interna,2528,PSP
MADEIRA - Esquadra de Segurança Aeroportuaria,Segurança Aeroportuaria,1368,310805,"Rua das Forças de Segurança, Edificio das forças de segurança",9100-105,SANTA CRUZ,Dias úteis: 9h00-12h30 / 14h00-16h00 - Atendimento Policial Permanente,291520889,esa.madeira@psp.pt,http://www.psp.pt,32.691868,-16.777158,237,Ministério da Administração Interna,2528,PSP
PORTO SANTO - Esquadra de Segurança Aeroportuaria,Segurança Aeroportuaria,1369,320101,Sítio do Tanque,9400-110,PORTO SANTO,Dias úteis: 9h00-12h30 / 14h00-16h00 - Atendimento Policial Permanente,291982289,aeroporto.psanto@psp.pt,http://www.psp.pt,33.070160,-16.345237,237,Ministério da Administração Interna,2528,PSP
DESTACAMENTO DA ADMINISTRAÇÃO DOS PORTOS DA MADEIRA,Varios,1370,310307,"Estrada da Pontinha, s/n",9004-530,FUNCHAL,Dias úteis: 9h00-12h30 / 14h00-16h00,291208600-291208438,maddrportos@rnpsp.psp.local,http://www.psp.pt,32.641828,-16.918049,237,Ministério da Administração Interna,2528,PSP
PORTO SANTO - Colonia de Ferias SSPSP,Varios,1371,320101,Rua das Palmeiras nº 66,9400-127,PORTO SANTO,Sem Horário de Atendimento,291982615,hotel.portosanto@sspsp.pt,http://www.psp.pt,33.059042,-16.343579,237,Ministério da Administração Interna,2528,PSP
AÇORES - Comando Regional,Comando,1372,420312,"Rua da Alfândega, n.º 1",9504-524,PONTA DELGADA,Dias úteis: 9h00-12h30 / 14h00-16h00,296205500,cracores@psp.pt,http://www.psp.pt,37.739558,-25.667362,237,Ministério da Administração Interna,2528,PSP
PONTA DELGADA - Divisão Policial,Divisão de Policia,1373,420312,"Rua da Alfândega, nº 1",9504-524,PONTA DELGADA,Dias úteis: 9h00-12h30 / 14h00-16h00,296282022 - 296205500 - 964410785 - 964410789,cppdelgada@psp.pt,http://www.psp.pt,37.739558,-25.667362,237,Ministério da Administração Interna,2528,PSP
PONTA DELGADA - Esquadra de Trânsito,Esquadra de Trânsito,1374,420312,"Rua São Joaquim, n.º 1",9500-112,PONTA DELGADA,Dias úteis: 9h00-12h30 / 14h00-16h00 - Atendimento Policial Permanente,296284327 - 296206090 - 296206089,pdlesqtr@rnsi.local,http://www.psp.pt,37.745879,-25.672474,237,Ministério da Administração Interna,2528,PSP
PONTA DELGADA - Esquadra de Investigação Criminal,Esquadra de Investigação Criminal,1375,420312,"Rua da Alfândega, s/n.º",9504-524,PONTA DELGADA,Dias úteis: 9h00-12h30 / 14h00-16h00 - Atendimento Policial Permanente,296206074-296206073-296206072,pdlsic@rnsi.local,http://www.psp.pt,37.739847,-25.667523,237,Ministério da Administração Interna,2528,PSP
PONTA DELGADA - Esquadra de Intervenção e Fiscalização Policial,Esquadra de Intervenção e Fiscalização Policial,1376,420312,"Rua da Boa Nova, n.º 3",9500-112,PONTA DELGADA,Regime de turnos,296305926 - 296305927 - 296305920,pdleifp@rnsi.local,http://www.psp.pt,37.742405,-25.655538,237,Ministério da Administração Interna,2528,PSP
PONTA DELGADA - Esquadra,Esquadra de Polícia,1377,420312,Rua da Alfândega n.º 1,9504-524,PONTA DELGADA,Dias úteis: 9h00-12h30 / 14h00-16h00 - Atendimento Policial Permanente,296206070,pdlesqsede@rnsi.local,http://www.psp.pt,37.739558,-25.667362,237,Ministério da Administração Interna,2528,PSP
RIBEIRA GRANDE - Esquadra,Esquadra de Polícia,1378,420511,"Rua dos Bombeiros Voluntários da Ribeira Grande, s/n",9600-228,RIBEIRA GRANDE,Dias úteis: 9h00-12h30 / 14h00-16h00 - Atendimento Policial Permanente,296472120 - 296473410,pdlesqrgrande@rnsi.local,http://www.psp.pt,37.8194472,-25.522211,237,Ministério da Administração Interna,2528,PSP
CAPELAS - Esquadra,Esquadra de Polícia,1379,420304,"Rua Nossa Senhora da Apresentação, 1",9545-149,CAPELAS,Dias úteis: 9h00-12h30 / 14h00-16h00 - Atendimento Policial Permanente,296298742 - 296989433,pdlesqcapelas@rnsi.local,http://www.psp.pt,37.836543,"-25,689442",237,Ministério da Administração Interna,2528,PSP
FURNAS - Esquadra,Esquadra de Polícia,1380,420403,"Avenida Victor Manuel Rodrigues, N.º 1",9675-063,FURNAS,Dias úteis: 9h00-12h30 / 14h00-16h00 - Atendimento Policial Permanente,296549040 - 296549042,pdlesqfurnas@rnsi.local,http://www.psp.pt,37.772233,-25.309646,237,Ministério da Administração Interna,2528,PSP
LAGOA - Esquadra,Esquadra de Polícia,1381,420103,"Rua do Espirito Santo, s/n",9560-079,LAGOA (SÃO MIGUEL),Dias úteis: 9h00-12h30 / 14h00-16h00 - Atendimento Policial Permanente,296960410 - 296960412 - 296960413 - 296690411,pdlesqlagoa@psp.pt,http://www.psp.pt,37.746761,-25.575609,237,Ministério da Administração Interna,2528,PSP
MAIA - Esquadra,Esquadra de Polícia,1382,420505,"Rua Santa Catarina, Nº 9",9625-337,MAIA (SÃO MIGUEL),Dias úteis: 9h00-12h30 / 14h00-16h00 - Atendimento Policial Permanente,296442444 - 296442996,pdlesqmaia@rnsi.local,http://www.psp.pt,37.831726,-25.387060,237,Ministério da Administração Interna,2528,PSP
NORDESTE - Esquadra,Esquadra de Polícia,1383,420204,"Largo Jogo da Choca, n.º 1",9630-147,NORDESTE,Dias úteis: 9h00-12h30 / 14h00-16h00 - Atendimento Policial Permanente,296480112 - 296480110,pdlesqnordeste@rnsi.local,http://www.psp.pt,37.831065,-25.145608,237,Ministério da Administração Interna,2528,PSP
POVOAÇÃO - Esquadra,Esquadra de Polícia,1384,420405,"Rua 25 de Abril, Nº 2",9650-411,POVOAÇÃO,Dias úteis: 9h00-12h30 / 14h00-16h00 - Atendimento Policial Permanente,296550000 - 296550001,pdlesqpovoacao@rnsi.local,http://www.psp.pt,37.746638,-25.245826,237,Ministério da Administração Interna,2528,PSP
VILA FRANCA DO CAMPO - Esquadra,Esquadra de Polícia,1385,420605,"Rua Império dos Aflitos, s/n",9680-160,VILA FRANCA DO CAMPO,Dias úteis: 9h00-12h30 / 14h00-16h00 - Atendimento Policial Permanente,296539310 - 296539312,pdlesqvfcampo@rnsi.local,http://www.psp.pt,37.714873,-25.440125,237,Ministério da Administração Interna,2528,PSP
RABO DE PEIXE - Esquadra,Esquadra de Polícia,1386,420508,"Avenida D. Paulo José Tavares, s/n",9600-091,RABO DE PEIXE,Dias úteis: 9h00-12h30 / 14h00-16h00 - Atendimento Policial Permanente,296492033 - 296491163,pdlesqrpeixe@rnsi.local,http://www.psp.pt,37.814531,-25.588354,237,Ministério da Administração Interna,2528,PSP
PONTA DELGADA - Esquadra de Segurança Aeroportuaria,Segurança Aeroportuaria,1387,320101,Aeroporto João Paulo II,9500,PONTA DELGADA,Dias úteis: 9h00-12h30 / 14h00-16h00 - Atendimento Policial Permanente,296205517 - 296206091,pdlesqsegaer@rnsi.local,http://www.psp.pt,37.749696,-25.710738,237,Ministério da Administração Interna,2528,PSP
VILA DO PORTO - Esquadra,Esquadra de Polícia,1388,410105,"Rua Luís Bettencourt, Nº 107",9580-529,VILA DO PORTO,Dias úteis: 9h00-12h30 / 14h00-16h00 - Atendimento Policial Permanente,296820110 - 296820111 - 296820112,pdlesqsmaria@rnsi.local,http://www.psp.pt,36.957042,-25.140592,237,Ministério da Administração Interna,2528,PSP
ANGRA DO HEROISMO - Divisão Policial,Divisão de Policia,1389,430102,Praça Dr Sousa Junior. nº 1,9700-070,ANGRA DO HEROÍSMO,Dias úteis: 9h00-12h30 / 14h00-16h00,295212022 - 295401580,cpangra@psp.pt,http://www.psp.pt,38.657398,-27.215087,237,Ministério da Administração Interna,2528,PSP
ANGRA DO HEROÍSMO - Esquadra de Trânsito,Esquadra de Trânsito,1390,430102,"Praça Dr. Sousa Júnior, Nº 1",9700-070,ANGRA DO HEROÍSMO,Dias úteis: 9h00-12h30 / 14h00-16h00 - Atendimento Policial Permanente,295401587,aghesqtr@rnsi.local,http://www.psp.pt,38.657398,-27.215087,237,Ministério da Administração Interna,2528,PSP
ANGRA DO HEROÍSMO - Esquadra de Investigação Criminal,Esquadra de Investigação Criminal,1391,430102,"Praça Dr. Sousa Júnior, Nº 1",9700-070,ANGRA DO HEROÍSMO,Dias úteis: 9h00-12h30 / 14h00-16h00,295212022 - 295401580,nic.angra.cracores@psp.pt,http://www.psp.pt,38.657398,-27.215087,237,Ministério da Administração Interna,2528,PSP
ANGRA DO HEROÍSMO - Esquadra de Intervenção e Fiscalização Policial,Esquadra de Intervenção e Fiscalização Policial,1392,430102,"Praça Dr. Sousa Júnior, Nº 1",9700-070,ANGRA DO HEROÍSMO,Sem Horário de Atendimento,295212022 - 295401580,eifp.angra.cracores@psp.pt,http://www.psp.pt,38.657398,-27.215087,237,Ministério da Administração Interna,2528,PSP
ANGRA DO HEROÍSMO - Esquadra,Esquadra de Polícia,1393,430102,"Praça Dr. Sousa Júnior, n.º 1",9700-070,ANGRA DO HEROÍSMO,Dias úteis: 9h00-12h30 / 14h00-16h00 - Atendimento Policial Permanente,295212022,agh1esq@rnsi.local,http://www.psp.pt,38.657398,-27.215087,237,Ministério da Administração Interna,2528,PSP
PRAIA DA VÍTORIA - Esquadra,Esquadra de Polícia,1394,430207,"Largo Conde Praia da Vitória, nº 1",9760-438,PRAIA DA VITÓRIA,Dias úteis: 9h00-12h30 / 14h00-16h00 - Atendimento Policial Permanente,295545480,agh2esq@rnsi.local,http://www.psp.pt,38.730753,-27.064583,237,Ministério da Administração Interna,2528,PSP
BISCOITOS - Esquadra,Esquadra de Polícia,1395,430202,"Caminho do Concelho, n.º 56",9760-051,BISCOITOS,Dias úteis: 9h00-12h30 / 14h00-16h00 - Atendimento Policial Permanente,295908710,aghesqbst@rnsi.local,http://www.psp.pt,38.79370278,-27.2561833,237,Ministério da Administração Interna,2528,PSP
LAGES - Esquadra de Segurança Aeroportuaria,Segurança Aeroportuaria,1396,430206,"Estrada do Aeroporto, nº 1",9760-251,LAJES VPV,Dias úteis: 9h00-12h30 / 14h00-16h00 - Atendimento Policial Permanente,295512021,aghesqaerljt@rnsi.local,http://www.psp.pt,38.753978,-27.08745,237,Ministério da Administração Interna,2528,PSP
CALHETA - Esquadra,Esquadra de Polícia,1397,450101,"Rua Padre Manuel Azevedo da Cunha, s/n",9850-045,CALHETA (SÃO JORGE),Dias úteis: 9h00-12h30 / 14h00-16h00 - Atendimento Policial Permanente,295416365,aghesqcsj@rnsi.local,http://www.psp.pt,38.601763,-28.015727,237,Ministério da Administração Interna,2528,PSP
VELAS - Esquadra,Esquadra de Polícia,1398,450206,"Largo Dr. João Pereira, s/n",9800-527,VELAS,Dias úteis: 9h00-12h30 / 14h00-16h00 - Atendimento Policial Permanente,295412339,aghesqvls@rnsi.local,http://www.psp.pt,38.679362,-28.205032,237,Ministério da Administração Interna,2528,PSP
SANTA CRUZ DA GRACIOSA - Esquadra,Esquadra de Polícia,1399,440104,"Rua da Boavista, s/n",9880-360,SANTA CRUZ DA GRACIOSA,Dias úteis: 9h00-12h30 / 14h00-16h00 - Atendimento Policial Permanente,295730200,aghesqscg@rnsi.local,http://www.psp.pt,39.084092,-28.00813333,237,Ministério da Administração Interna,2528,PSP
HORTA - Divisão Policial,Divisão de Policia,1400,470106,"Avenida Gago Coutinho e Sacadura Cabral, s/n",9900-062,HORTA,Dias úteis: 08h30-12h30/13h30-17h30,292208510,cphorta@psp.pt,http://www.psp.pt,38.527076,-28.630382,237,Ministério da Administração Interna,2528,PSP
HORTA - Esquadra de Trânsito,Esquadra de Trânsito,1401,470106,"Av. Gago Coutinho e Sacadura Cabral, s/n",9900-063,HORTA,Dias úteis: 08h30-12h30/13h30-17h30,292208511,hrtesqtr@rnsi.local,http://www.psp.pt,38.527076,-28.630382,237,Ministério da Administração Interna,2528,PSP
HORTA - Esquadra de Investigação Criminal,Esquadra de Investigação Criminal,1402,470106,"Av. Gago Coutinho e Sacadura Cabral, s/n",9900-062,HORTA,Dias úteis: 08h30-12h30/13h30-17h30,292208510,hrteic@rnsi.local,http://www.psp.pt,38.527076,-28.630382,237,Ministério da Administração Interna,2528,PSP
HORTA - Esquadra de Intervenção e Fiscalização Policial,Esquadra de Intervenção e Fiscalização Policial,1403,470106,"Av. Gago Coutinho e Sacadura Cabral, s/n",9900-062,HORTA,Dias úteis: 08h30-12h30/13h30-17h30,292208510,hrteir@rnsi.local,http://www.psp.pt,38.527076,-28.630382,237,Ministério da Administração Interna,2528,PSP
HORTA - Esquadra,Esquadra de Polícia,1404,470106,"Avenida Gago Coutinho e Sacadura Cabral, s/n",9900-062,HORTA,Atendimento Policial Permanente,292208510,hrtesqsede@rnsi.local,http://www.psp.pt,38.527076,-28.630382,237,Ministério da Administração Interna,2528,PSP
HORTA - Esquadra de Segurança Aeroportuaria,Segurança Aeroportuaria,1405,470102,"Lugar do Jogo, s/n",9900-330,CASTELO BRANCO HRT,Atendimento Policial Permanente,292943511,hrtsegaer@rnsi.local,http://www.psp.pt,38.521301,-28.715161,237,Ministério da Administração Interna,2528,PSP
SÃO ROQUE DO PICO - Esquadra de Investigação Criminal,Esquadra de Investigação Criminal,1406,460204,"Rua Engenheiro Álvaro Freitas, s/n",9950-335,MADALENA (PICO),Dias úteis: 08h30-12h30/13h30-17h30,292642136,hrtsrpsic@rnsi.local,http://www.psp.pt,38.533526,-28.527085,237,Ministério da Administração Interna,2528,PSP
SÃO ROQUE DO PICO - Esquadra,Esquadra de Polícia,1407,460305,"Rua de Santo Amaro, s/n",9940-351,SÃO ROQUE DO PICO,Atendimento Policial Permanente,292642115,hrtsrpsic@rnsi.local,http://www.psp.pt,38.525030,-28.318636,237,Ministério da Administração Interna,2528,PSP
MADALENA DO PICO - Esquadra,Esquadra de Polícia,1408,460204,"Rua Engenheiro Álvaro Freitas, s/n",9950-335,MADALENA (PICO),Atendimento Policial Permanente,292622860,hrtmdp@rnsi.local,http://www.psp.pt,38.533526,-28.527085,237,Ministério da Administração Interna,2528,PSP
LAGES DO PICO - Esquadra,Esquadra de Polícia,1409,460102,"Estrada Regional, s/n",9930-135,LAJES DO PICO,Atendimento Policial Permanente,292672410,hrtlgp@rnsi.local,http://www.psp.pt,38.3997083,-28.2515527,237,Ministério da Administração Interna,2528,PSP
SANTA CRUZ DAS FLORES - Esquadra de Investigação Criminal,Esquadra de Investigação Criminal,1410,480204,"Bairro Antigo dos Franceses, s/n",9970-305,SANTA CRUZ DAS FLORES,Dias úteis: 08h30-12h30/13h30-17h30,292592115,hrtscfsic@rnsi.local,http://www.psp.pt,39.454959,-31.126724,237,Ministério da Administração Interna,2528,PSP
SANTA CRUZ DAS FLORES - Esquadra,Esquadra de Polícia,1411,480204,"Antigo Bairro dos Franceses, s/n",9970-305,SANTA CRUZ DAS FLORES,Atendimento Policial Permanente,292592115,hrtscf@rnsi.local,http://www.psp.pt,39.454960,-31.126725,237,Ministério da Administração Interna,2528,PSP
LAJES DAS FLORES - Esquadra,Esquadra de Polícia,1412,480105,"Rua da Autonomia, n.º 21",9960-438,LAJES DAS FLORES,Atendimento Policial Permanente,292593186,hrtlgp@rnsi.local,http://www.psp.pt,39.376968,-31.175010,237,Ministério da Administração Interna,2528,PSP
DIREÇÃO NACIONAL DA PSP - Departamento de Armas e Explosivos,Departamento,1413,110666,"Rua da Artilharia 1, nº 21",1269-003,LISBOA,Dias úteis: 9h00-12h30 / 14h00-16h00,213703900,depaex@psp.pt,http://www.psp.pt,38.723383,-9.154564,237,Ministério da Administração Interna,2528,PSP
DIREÇÃO NACIONAL DA PSP - Departamento de Segurança Privada,Departamento,1414,110666,"Rua da Artilharia 1, nº 21",1269-003,LISBOA,Dias úteis: 9h00-12h30 / 14h00-16h00,213703900,depspriv@psp.pt,http://www.psp.pt,38.723383,-9.154564,237,Ministério da Administração Interna,2528,PSP
ESCOLA PRATICA DE POLICIA,Estabelecimento de Ensino,1415,141921,Largo das Forças Armadas,2350-754,TORRES NOVAS,Dias úteis: 9h00-12h30 / 14h00-16h00,249819660 - 962049941 - 964547555,epp@psp.pt,http://www.psp.pt,39.481094,-8.534408,237,Ministério da Administração Interna,2528,PSP
INSTITUTO SUPERIOR DE CIÊNCIAS POLICIAIS E SEGURANÇA INTERNA,Estabelecimento de Ensino,1416,110602,"Rua 1º de Maio, n.º 3",1349-040,LISBOA,Dias úteis: 9h00-12h30 / 14h00-16h00,213613900,iscpsi@psp.pt,http://www.psp.pt,38.704418,-9.178236,237,Ministério da Administração Interna,2528,PSP
